city,people_served,state,url,utility_name,zip
Verona,23630,VA,https://www.ewg.org/tapwater/system.php?pws=VA2015575,South River Sanitary District,24441
Harrisonburg,10153,VA,https://www.ewg.org/tapwater/system.php?pws=VA2165705,Three Springs Regional - Rcpw,24441
Bridgewater,5644,VA,https://www.ewg.org/tapwater/system.php?pws=VA2165045,"Bridgewater, Town of",24441
Verona,5433,VA,https://www.ewg.org/tapwater/system.php?pws=VA2015725,Verona Sanitary District - Acsa,24441
Broadway,3671,VA,https://www.ewg.org/tapwater/system.php?pws=VA2165060,"Broadway, Town of",24441
La Habra Heights,5379,CA,https://www.ewg.org/tapwater/system.php?pws=CA1910218,La Habra Heights County Water District,90631
Commerce,0,CA,https://www.ewg.org/tapwater/system.php?pws=CA1910253,Central Basin Municipal Water District,90631
Covina,59169,CA,https://www.ewg.org/tapwater/system.php?pws=CA1910174,Suburban Water Systems - Whittier,90631
Fullerton,138251,CA,https://www.ewg.org/tapwater/system.php?pws=CA3010010,City of Fullerton,90631
Commerce,0,CA,https://www.ewg.org/tapwater/system.php?pws=CA1910253,Central Basin Municipal Water District,90631
El Monte,226904,CA,https://www.ewg.org/tapwater/system.php?pws=CA1910039,San Gabriel Valley Water Company- El Monte,90631
Claremont,0,CA,https://www.ewg.org/tapwater/system.php?pws=CA1910041,Three Valleys Municipal Water District,90631
Rowland Heights,62106,CA,https://www.ewg.org/tapwater/system.php?pws=CA1910194,Rowland Water District,90631
La Habra Heights,5379,CA,https://www.ewg.org/tapwater/system.php?pws=CA1910218,La Habra Heights County Water District,90631
Brea,41394,CA,https://www.ewg.org/tapwater/system.php?pws=CA3010002,City Of Brea,90631
Commerce,0,CA,https://www.ewg.org/tapwater/system.php?pws=CA1910253,Central Basin Municipal Water District,90631
Commerce,0,CA,https://www.ewg.org/tapwater/system.php?pws=CA1910253,Central Basin Municipal Water District,90631
Covina,59169,CA,https://www.ewg.org/tapwater/system.php?pws=CA1910174,Suburban Water Systems - Whittier,90631
La Habra Heights,5379,CA,https://www.ewg.org/tapwater/system.php?pws=CA1910218,La Habra Heights County Water District,90631
Commerce,0,CA,https://www.ewg.org/tapwater/system.php?pws=CA1910253,Central Basin Municipal Water District,90631
Rowland Heights,62106,CA,https://www.ewg.org/tapwater/system.php?pws=CA1910194,Rowland Water District,90631
La Habra Heights,5379,CA,https://www.ewg.org/tapwater/system.php?pws=CA1910218,La Habra Heights County Water District,90631
Commerce,0,CA,https://www.ewg.org/tapwater/system.php?pws=CA1910253,Central Basin Municipal Water District,90631
Rowland Heights,62106,CA,https://www.ewg.org/tapwater/system.php?pws=CA1910194,Rowland Water District,90631
La Habra,60239,CA,https://www.ewg.org/tapwater/system.php?pws=CA3010018,City of La Habra,90631
La Habra Heights,5379,CA,https://www.ewg.org/tapwater/system.php?pws=CA1910218,La Habra Heights County Water District,90631
Covina,56953,CA,https://www.ewg.org/tapwater/system.php?pws=CA1910059,Suburban Water Systems - La Mirada,90631
La Habra,60239,CA,https://www.ewg.org/tapwater/system.php?pws=CA3010018,City of La Habra,90631
Rowland Heights,62106,CA,https://www.ewg.org/tapwater/system.php?pws=CA1910194,Rowland Water District,90631
La Habra,60239,CA,https://www.ewg.org/tapwater/system.php?pws=CA3010018,City of La Habra,90631
Commerce,0,CA,https://www.ewg.org/tapwater/system.php?pws=CA1910253,Central Basin Municipal Water District,90631
Covina,59169,CA,https://www.ewg.org/tapwater/system.php?pws=CA1910174,Suburban Water Systems - Whittier,90631
Covina,162031,CA,https://www.ewg.org/tapwater/system.php?pws=CA1910205,Suburban Water Systems - San Jose Hills,90631
Rowland Heights,62106,CA,https://www.ewg.org/tapwater/system.php?pws=CA1910194,Rowland Water District,90631
Claremont,0,CA,https://www.ewg.org/tapwater/system.php?pws=CA1910041,Three Valleys Municipal Water District,90631
La Habra Heights,5379,CA,https://www.ewg.org/tapwater/system.php?pws=CA1910218,La Habra Heights County Water District,90631
La Habra,60239,CA,https://www.ewg.org/tapwater/system.php?pws=CA3010018,City of La Habra,90631
Commerce,0,CA,https://www.ewg.org/tapwater/system.php?pws=CA1910253,Central Basin Municipal Water District,90631
Covina,56953,CA,https://www.ewg.org/tapwater/system.php?pws=CA1910059,Suburban Water Systems - La Mirada,90631
Covina,162031,CA,https://www.ewg.org/tapwater/system.php?pws=CA1910205,Suburban Water Systems - San Jose Hills,90631
La Habra Heights,5379,CA,https://www.ewg.org/tapwater/system.php?pws=CA1910218,La Habra Heights County Water District,90631
Commerce,0,CA,https://www.ewg.org/tapwater/system.php?pws=CA1910253,Central Basin Municipal Water District,90631
El Monte,226904,CA,https://www.ewg.org/tapwater/system.php?pws=CA1910039,San Gabriel Valley Water Company- El Monte,90631
Commerce,0,CA,https://www.ewg.org/tapwater/system.php?pws=CA1910253,Central Basin Municipal Water District,90631
Covina,162031,CA,https://www.ewg.org/tapwater/system.php?pws=CA1910205,Suburban Water Systems - San Jose Hills,90631
La Habra Heights,5379,CA,https://www.ewg.org/tapwater/system.php?pws=CA1910218,La Habra Heights County Water District,90631
Covina,162031,CA,https://www.ewg.org/tapwater/system.php?pws=CA1910205,Suburban Water Systems - San Jose Hills,90631
Commerce,0,CA,https://www.ewg.org/tapwater/system.php?pws=CA1910253,Central Basin Municipal Water District,90631
Brea,41394,CA,https://www.ewg.org/tapwater/system.php?pws=CA3010002,City Of Brea,90631
Rowland Heights,62106,CA,https://www.ewg.org/tapwater/system.php?pws=CA1910194,Rowland Water District,90631
Covina,56953,CA,https://www.ewg.org/tapwater/system.php?pws=CA1910059,Suburban Water Systems - La Mirada,90631
Commerce,0,CA,https://www.ewg.org/tapwater/system.php?pws=CA1910253,Central Basin Municipal Water District,90631
Covina,162031,CA,https://www.ewg.org/tapwater/system.php?pws=CA1910205,Suburban Water Systems - San Jose Hills,90631
Commerce,0,CA,https://www.ewg.org/tapwater/system.php?pws=CA1910253,Central Basin Municipal Water District,90631
La Habra,60239,CA,https://www.ewg.org/tapwater/system.php?pws=CA3010018,City of La Habra,90631
La Habra,60239,CA,https://www.ewg.org/tapwater/system.php?pws=CA3010018,City of La Habra,90631
Covina,59169,CA,https://www.ewg.org/tapwater/system.php?pws=CA1910174,Suburban Water Systems - Whittier,90631
Covina,162031,CA,https://www.ewg.org/tapwater/system.php?pws=CA1910205,Suburban Water Systems - San Jose Hills,90631
El Monte,226904,CA,https://www.ewg.org/tapwater/system.php?pws=CA1910039,San Gabriel Valley Water Company- El Monte,90631
Rowland Heights,62106,CA,https://www.ewg.org/tapwater/system.php?pws=CA1910194,Rowland Water District,90631
Commerce,0,CA,https://www.ewg.org/tapwater/system.php?pws=CA1910253,Central Basin Municipal Water District,90631
La Habra,60239,CA,https://www.ewg.org/tapwater/system.php?pws=CA3010018,City of La Habra,90631
Covina,59169,CA,https://www.ewg.org/tapwater/system.php?pws=CA1910174,Suburban Water Systems - Whittier,90631
Rowland Heights,62106,CA,https://www.ewg.org/tapwater/system.php?pws=CA1910194,Rowland Water District,90631
La Habra Heights,5379,CA,https://www.ewg.org/tapwater/system.php?pws=CA1910218,La Habra Heights County Water District,90631
La Habra Heights,5379,CA,https://www.ewg.org/tapwater/system.php?pws=CA1910218,La Habra Heights County Water District,90631
Rowland Heights,62106,CA,https://www.ewg.org/tapwater/system.php?pws=CA1910194,Rowland Water District,90631
La Habra,60239,CA,https://www.ewg.org/tapwater/system.php?pws=CA3010018,City of La Habra,90631
Auxvasse,983,MO,https://www.ewg.org/tapwater/system.php?pws=MO3010039,Auxvasse PWS,65251
Fulton,13080,MO,https://www.ewg.org/tapwater/system.php?pws=MO3024085,Callaway 2 Water District,65251
Holts Summit,9840,MO,https://www.ewg.org/tapwater/system.php?pws=MO3024084,Callaway County Public Water Supply District 1,65251
Fulton,12128,MO,https://www.ewg.org/tapwater/system.php?pws=MO3010296,Fulton,65251
Columbia,70,MO,https://www.ewg.org/tapwater/system.php?pws=MO3041238,Hatton Hills Mobile Home Park,65251
Kingdom City,128,MO,https://www.ewg.org/tapwater/system.php?pws=MO3010424,Kingdom City PWS,65251
Jefferson City,95,MO,https://www.ewg.org/tapwater/system.php?pws=MO3010146,MO American Jefferson City North,65251
Mokane,208,MO,https://www.ewg.org/tapwater/system.php?pws=MO3010535,Mokane Water Co-op,65251
New Bloomfield,669,MO,https://www.ewg.org/tapwater/system.php?pws=MO3010563,New Bloomfield PWS,65251
Fulton,45,MO,https://www.ewg.org/tapwater/system.php?pws=MO3048994,New Christian Life Fellowship,65251
Mokane,30,MO,https://www.ewg.org/tapwater/system.php?pws=MO3069003,Riverview Nursing Center,65251
Steedman,113,MO,https://www.ewg.org/tapwater/system.php?pws=MO3242162,Wildwood Lot Owners Association,65251
Newberg,340,OR,https://www.ewg.org/tapwater/system.php?pws=OR4100644,Burlington Water District,97215
Scappoose,74,OR,https://www.ewg.org/tapwater/system.php?pws=OR4101510,Casselmans Wharf,97215
Portland,300,OR,https://www.ewg.org/tapwater/system.php?pws=OR4101267,City Bible Church,97215
Troutdale,16020,OR,https://www.ewg.org/tapwater/system.php?pws=OR4100901,City of Troutdale,97215
Corbett,3300,OR,https://www.ewg.org/tapwater/system.php?pws=OR4100359,Corbett Water District,97215
Gresham,66000,OR,https://www.ewg.org/tapwater/system.php?pws=OR4100357,Cty of Gresham,97215
Fairview,9077,OR,https://www.ewg.org/tapwater/system.php?pws=OR4100296,"Fairview, City of",97215
Fairview,360,OR,https://www.ewg.org/tapwater/system.php?pws=OR4100902,Interlachen Water People's Utility District,97215
Portland,200,OR,https://www.ewg.org/tapwater/system.php?pws=OR4100662,Lorna Portland Water LLC,97215
Gresham,1200,OR,https://www.ewg.org/tapwater/system.php?pws=OR4100361,Lusted Water District,97215
Portland,24,OR,https://www.ewg.org/tapwater/system.php?pws=OR4101258,Mayfair Moorage Inc.,97215
Portland,1500,OR,https://www.ewg.org/tapwater/system.php?pws=OR4100653,Palatine Hill Water District,97215
Scappoose,150,OR,https://www.ewg.org/tapwater/system.php?pws=OR4101460,Pirates Cove Marina,97215
Gresham,1510,OR,https://www.ewg.org/tapwater/system.php?pws=OR4100360,Pleasant Home Water District,97215
Portland,585000,OR,https://www.ewg.org/tapwater/system.php?pws=OR4100657,Portland Water Bureau,97215
Portland,61082,OR,https://www.ewg.org/tapwater/system.php?pws=OR4100668,Rockwood People&aposs Utilities Department,97215
Portland,100,OR,https://www.ewg.org/tapwater/system.php?pws=OR4101251,Rocky Pointe Marina,97215
Fairview,225,OR,https://www.ewg.org/tapwater/system.php?pws=OR4101262,Sandy Boulevard Mobile Villa,97215
Portland,96,OR,https://www.ewg.org/tapwater/system.php?pws=OR4101209,Sauvie Island Moorage,97215
Silverton,71,OR,https://www.ewg.org/tapwater/system.php?pws=OR4101157,Terrand Mobile Terrace,97215
Beaverton,1034,OR,https://www.ewg.org/tapwater/system.php?pws=OR4100661,Valley View Water District,97215
Wood Village,3907,OR,https://www.ewg.org/tapwater/system.php?pws=OR4100904,"Wood Village, City of",97215
Basalt,300,CO,https://www.ewg.org/tapwater/system.php?pws=CO0149123,Aspen Village Md,81642
Aspen,90,CO,https://www.ewg.org/tapwater/system.php?pws=CO0149155,Brush Creek Water District,81642
Basalt,200,CO,https://www.ewg.org/tapwater/system.php?pws=CO0149160,Buttermilk Md,81642
Aspen,31100,CO,https://www.ewg.org/tapwater/system.php?pws=CO0149122,City of Aspen,81642
Carbondale,44,CO,https://www.ewg.org/tapwater/system.php?pws=CO0149188,Crystal River Country Estates Water Company,81642
Aspen,44,CO,https://www.ewg.org/tapwater/system.php?pws=CO0149609,Ellamae Phillips Company Rllp,81642
Snowmass,160,CO,https://www.ewg.org/tapwater/system.php?pws=CO0149300,Gateway Md,81642
Glenwood Springs,225,CO,https://www.ewg.org/tapwater/system.php?pws=CO0149352,Holland Hills Md,81642
Glenwood Springs,110,CO,https://www.ewg.org/tapwater/system.php?pws=CO0149218,Kk Water Association,81642
Snowmass,322,CO,https://www.ewg.org/tapwater/system.php?pws=CO0149466,Lazy Glen Homeowners Association,81642
Snowmass,200,CO,https://www.ewg.org/tapwater/system.php?pws=CO0149476,Little Elk Creek,81642
Basalt,64,CO,https://www.ewg.org/tapwater/system.php?pws=CO0149588,Orchard Estates,81642
Aspen,41,CO,https://www.ewg.org/tapwater/system.php?pws=CO0149611,Pitkin Iron Homeowners Association,81642
Carbondale,50,CO,https://www.ewg.org/tapwater/system.php?pws=CO0149621,Prince Creek Homeowners Association,81642
Snowmass,180,CO,https://www.ewg.org/tapwater/system.php?pws=CO0149671,Redstone Water & Sanitation District,81642
Snowmass,32,CO,https://www.ewg.org/tapwater/system.php?pws=CO0149843,Riversbend,81642
Snowmass Village,6353,CO,https://www.ewg.org/tapwater/system.php?pws=CO0149717,Snowmass Village Water & Sanitation District,81642
Aspen,300,CO,https://www.ewg.org/tapwater/system.php?pws=CO0149724,Starwood Metropolitan District,81642
Snowmass,95,CO,https://www.ewg.org/tapwater/system.php?pws=CO0149727,Swiss Village Homeowners Association,81642
Snowmass,30,CO,https://www.ewg.org/tapwater/system.php?pws=CO0149710,Waterview Condominium Association,81642
Glenwood Springs,28,CO,https://www.ewg.org/tapwater/system.php?pws=CO0149613,West Ranch Subdivision,81642
Aspen,70,CO,https://www.ewg.org/tapwater/system.php?pws=CO0149842,White Horse Springs Water District,81642
Snowmass,33,CO,https://www.ewg.org/tapwater/system.php?pws=CO0149185,Wild Cat Ranch,81642
Snowmass,324,CO,https://www.ewg.org/tapwater/system.php?pws=CO0149844,Wj Metro District,81642
Snowmass,220,CO,https://www.ewg.org/tapwater/system.php?pws=CO0149852,Woody Creek Mobile Home Park,81642
Maytown,3735,PA,https://www.ewg.org/tapwater/system.php?pws=PA7360083,East Donegal Township,17547
York,159623,PA,https://www.ewg.org/tapwater/system.php?pws=PA7670100,York Water Company,17547
Marietta,260,PA,https://www.ewg.org/tapwater/system.php?pws=PA7360080,Village of Rivermoor,17547
Indianapolis,814338,IN,https://www.ewg.org/tapwater/system.php?pws=IN5249004,Citizens Water - Indianapolis,46202
Indianapolis,46100,IN,https://www.ewg.org/tapwater/system.php?pws=IN5249005,City of Lawrence Utilities,46202
Speedway,11812,IN,https://www.ewg.org/tapwater/system.php?pws=IN5249008,Speedway Water Works,46202
Portland,1233,ME,https://www.ewg.org/tapwater/system.php?pws=ME0002175,Bay Bridge Estates LLC,04097
Bridgton,2053,ME,https://www.ewg.org/tapwater/system.php?pws=ME0090230,Bridgton Water District,04097
Portland,30,ME,https://www.ewg.org/tapwater/system.php?pws=ME0092365,Brook Hollow,04097
Topsham,17383,ME,https://www.ewg.org/tapwater/system.php?pws=ME0090260,Brunswick / Topsham Water District,04097
Casco,80,ME,https://www.ewg.org/tapwater/system.php?pws=ME0092338,Casco Inn Residential Care,04097
Alfred,75,ME,https://www.ewg.org/tapwater/system.php?pws=ME0002893,Crystal Spring Mobile Home Park,04097
Gorham,90,ME,https://www.ewg.org/tapwater/system.php?pws=ME0090450,Dingley Spring Estates,04097
Portland,65,ME,https://www.ewg.org/tapwater/system.php?pws=ME0007001,Duck-a-way On Casco Bay,04097
Falmouth,80,ME,https://www.ewg.org/tapwater/system.php?pws=ME0094832,East Slope Condos At Shawnee Peak,04097
Gorham,760,ME,https://www.ewg.org/tapwater/system.php?pws=ME0007086,Friendly Village of Gorham Mobile Home Park,04097
Gray,2415,ME,https://www.ewg.org/tapwater/system.php?pws=ME0090620,Gray Water District,04097
Harrison,790,ME,https://www.ewg.org/tapwater/system.php?pws=ME0090670,Harrison Water District,04097
Waterford,718,ME,https://www.ewg.org/tapwater/system.php?pws=ME0090800,Knights Hill Association,04097
Saco,2225,ME,https://www.ewg.org/tapwater/system.php?pws=ME0090580,Maine Water Company Freeport Division,04097
Harpswell,97,ME,https://www.ewg.org/tapwater/system.php?pws=ME0092260,Millstone Apartments,04097
New Gloucester,130,ME,https://www.ewg.org/tapwater/system.php?pws=ME0092428,New Gloucester Water District,04097
Standish,40,ME,https://www.ewg.org/tapwater/system.php?pws=ME0092293,Northeastern Estates,04097
Standish,475,ME,https://www.ewg.org/tapwater/system.php?pws=ME0003240,Pine Tree Mobile Estates,04097
Naples,68,ME,https://www.ewg.org/tapwater/system.php?pws=ME0095510,Pond & Pond Trailer Park,04097
Portland,136945,ME,https://www.ewg.org/tapwater/system.php?pws=ME0091300,Portland Water District - Greater Portland,04097
Portland,433,ME,https://www.ewg.org/tapwater/system.php?pws=ME0091302,Portland Water District/steep Fall,04097
Raymond,50,ME,https://www.ewg.org/tapwater/system.php?pws=ME0092307,Raymond Woods Townhouses,04097
Portland,45,ME,https://www.ewg.org/tapwater/system.php?pws=ME0092339,Sandy Creek Housing,04097
Portland,45,ME,https://www.ewg.org/tapwater/system.php?pws=ME0091416,Scarborough Gardens,04097
Saco,755,ME,https://www.ewg.org/tapwater/system.php?pws=ME0091480,South Freeport Water District,04097
Freeport,35,ME,https://www.ewg.org/tapwater/system.php?pws=ME0092318,Tidal Brook Development,04097
Waldoboro,150,ME,https://www.ewg.org/tapwater/system.php?pws=ME0007009,Wardtown Park,04097
Brunswick,50,ME,https://www.ewg.org/tapwater/system.php?pws=ME0092372,Wood Pond Village,04097
Yarmouth,7760,ME,https://www.ewg.org/tapwater/system.php?pws=ME0091670,Yarmouth Water District,04097
Spokane,227505,WA,https://www.ewg.org/tapwater/system.php?pws=WA5383100,City of Spokane,99019
Spokane,26833,WA,https://www.ewg.org/tapwater/system.php?pws=WA5396601,Whitworth Water District 2,99019
Veradale,24692,WA,https://www.ewg.org/tapwater/system.php?pws=WA5391450,Vera Water & Power,99019
Spokane,18560,WA,https://www.ewg.org/tapwater/system.php?pws=WA5355600,Modern Electric Water Company,99019
Greenacres,13900,WA,https://www.ewg.org/tapwater/system.php?pws=WA5310221,Consolidated Irrig District 19 System 2,99019
Spokane,11555,WA,https://www.ewg.org/tapwater/system.php?pws=WA5393351,"Spokane County Water District 3, Sys 2",99019
Liberty Lake,8720,WA,https://www.ewg.org/tapwater/system.php?pws=WA5347150,Liberty Lake Sewer & Water District,99019
Cheney,8714,WA,https://www.ewg.org/tapwater/system.php?pws=WA5312400,"Cheney, City of",99019
Greenacres,8415,WA,https://www.ewg.org/tapwater/system.php?pws=WA5310220,Consolidated Irrig District 19 System 1,99019
Airway Heights,6200,WA,https://www.ewg.org/tapwater/system.php?pws=WA5300650,"Airway Heights, City of",99019
Grand Canyon,430,AZ,https://www.ewg.org/tapwater/system.php?pws=AZ0403084,Valle Airport Grand Canyon,86046
Flagstaff,80,AZ,https://www.ewg.org/tapwater/system.php?pws=AZ0403659,U.S. Forest Service Knf Tusayan Admin,86046
Atlanta,650000,GA,https://www.ewg.org/tapwater/system.php?pws=GA1210001,Atlanta,30327
Alpharetta,0,GA,https://www.ewg.org/tapwater/system.php?pws=GA1210038,Atlanta-Fulton County Water Resources Commission,30327
College Park,20382,GA,https://www.ewg.org/tapwater/system.php?pws=GA1210002,College Park,30327
East Point,33712,GA,https://www.ewg.org/tapwater/system.php?pws=GA1210003,East Point,30327
Fairburn,13693,GA,https://www.ewg.org/tapwater/system.php?pws=GA1210004,Fairburn,30327
Hapeville,6500,GA,https://www.ewg.org/tapwater/system.php?pws=GA1210006,Hapeville,30327
Mountain Park,798,GA,https://www.ewg.org/tapwater/system.php?pws=GA1210007,Mountain Park,30327
Roswell,682533,GA,https://www.ewg.org/tapwater/system.php?pws=GA1210005,North Fulton County,30327
Palmetto,3965,GA,https://www.ewg.org/tapwater/system.php?pws=GA1210008,Palmetto,30327
Roswell,14300,GA,https://www.ewg.org/tapwater/system.php?pws=GA1210009,Roswell,30327
Union City,18636,GA,https://www.ewg.org/tapwater/system.php?pws=GA1210010,Union City,30327
Chicago,2896016,IL,https://www.ewg.org/tapwater/system.php?pws=IL0316000,City of Chicago,60546
Elk Grove Village,319050,IL,https://www.ewg.org/tapwater/system.php?pws=IL0315400,Northwest Suburban Municipal Jawa,60546
Cicero,85616,IL,https://www.ewg.org/tapwater/system.php?pws=IL0310510,Cicero,60546
Schaumburg,81000,IL,https://www.ewg.org/tapwater/system.php?pws=IL0314890,Schaumburg,60546
Arlington Heights,76943,IL,https://www.ewg.org/tapwater/system.php?pws=IL0314030,Arlington Heights,60546
Evanston,74360,IL,https://www.ewg.org/tapwater/system.php?pws=IL0310810,Evanston,60546
Palatine,67000,IL,https://www.ewg.org/tapwater/system.php?pws=IL0312340,Palatine,60546
Skokie,63348,IL,https://www.ewg.org/tapwater/system.php?pws=IL0312880,Skokie,60546
Des Plaines,58710,IL,https://www.ewg.org/tapwater/system.php?pws=IL0310630,Des Plaines,60546
Glenview,58000,IL,https://www.ewg.org/tapwater/system.php?pws=IL0311020,Glenview,60546
Beverly Hills,10451,MI,https://www.ewg.org/tapwater/system.php?pws=MI0000690,Beverly Hills,48025
Waterford,1136,MI,https://www.ewg.org/tapwater/system.php?pws=MI0000715,Bingham Farms,48025
Farmington Hills,72460,MI,https://www.ewg.org/tapwater/system.php?pws=MI0002240,City of Farmington Hills,48025
Bloomfield Hills,41070,MI,https://www.ewg.org/tapwater/system.php?pws=MI0000790,Bloomfield Township,48025
Royal Oak,57236,MI,https://www.ewg.org/tapwater/system.php?pws=MI0005830,City of Royal Oak,48025
Birmingham,20103,MI,https://www.ewg.org/tapwater/system.php?pws=MI0000730,Birmingham,48025
West Bloomfield,49429,MI,https://www.ewg.org/tapwater/system.php?pws=MI0006975,West Bloomfield Township,48025
Bozeman,32000,MT,https://www.ewg.org/tapwater/system.php?pws=MT0000161,City of Bozeman,59752
West Yellowstone,8535,MT,https://www.ewg.org/tapwater/system.php?pws=MT0003136,"West Yellowstone, Town of",59752
Belgrade,7000,MT,https://www.ewg.org/tapwater/system.php?pws=MT0000136,"Belgrade, City of",59752
Belgrade,4200,MT,https://www.ewg.org/tapwater/system.php?pws=MT0004082,River Rock County Water and Sewer District,59752
Townsend,2000,MT,https://www.ewg.org/tapwater/system.php?pws=MT0000344,"Townsend, City of",59752
Three Forks,1909,MT,https://www.ewg.org/tapwater/system.php?pws=MT0000343,"Three Forks, City of",59752
Bozeman,1900,MT,https://www.ewg.org/tapwater/system.php?pws=MT0004284,North Star Zoot Water,59752
Manhattan,1571,MT,https://www.ewg.org/tapwater/system.php?pws=MT0000285,"Manhattan, Town of",59752
Boulder,1400,MT,https://www.ewg.org/tapwater/system.php?pws=MT0000158,"Boulder, City of",59752
Bozeman,1130,MT,https://www.ewg.org/tapwater/system.php?pws=MT0000628,Rae Water and Sewer District 313,59752
Albert,174,KS,https://www.ewg.org/tapwater/system.php?pws=KS2000914,"Albert, City of",67565
Alexander,63,KS,https://www.ewg.org/tapwater/system.php?pws=KS2016503,"Alexander, City of",67565
Great Bend,1000,KS,https://www.ewg.org/tapwater/system.php?pws=KS2000913,Barton County Community College,67565
Great Bend,368,KS,https://www.ewg.org/tapwater/system.php?pws=KS2000907,Barton County Rural Water District 2,67565
Great Bend,176,KS,https://www.ewg.org/tapwater/system.php?pws=KS2000915,Barton Hills Addition,67565
Bison,247,KS,https://www.ewg.org/tapwater/system.php?pws=KS2016501,"Bison, City of",67565
Hays,93,KS,https://www.ewg.org/tapwater/system.php?pws=KS2005110,Buffalo Hills Park,67565
Great Bend,15840,KS,https://www.ewg.org/tapwater/system.php?pws=KS2000911,City of Great Bend,67565
Hays,21044,KS,https://www.ewg.org/tapwater/system.php?pws=KS2005111,City of Hays,67565
Claflin,638,KS,https://www.ewg.org/tapwater/system.php?pws=KS2000905,"Claflin, City of",67565
Hays,125,KS,https://www.ewg.org/tapwater/system.php?pws=KS2005121,Country View Mobile Home Park,67565
Ellinwood,2098,KS,https://www.ewg.org/tapwater/system.php?pws=KS2000906,"Ellinwood, City of",67565
Hays,270,KS,https://www.ewg.org/tapwater/system.php?pws=KS2005124,Ellis County Rural Water District 1c,67565
Hays,200,KS,https://www.ewg.org/tapwater/system.php?pws=KS2005113,Ellis County Rural Water District 3,67565
Hays,250,KS,https://www.ewg.org/tapwater/system.php?pws=KS2005122,Ellis County Rural Water District 6,67565
Ellis,2074,KS,https://www.ewg.org/tapwater/system.php?pws=KS2005114,"Ellis, City of",67565
Hays,38,KS,https://www.ewg.org/tapwater/system.php?pws=KS2005116,Hays Suburban Estates,67565
Hoisington,2664,KS,https://www.ewg.org/tapwater/system.php?pws=KS2000903,"Hoisington, City of",67565
La Crosse,1290,KS,https://www.ewg.org/tapwater/system.php?pws=KS2016507,"Lacrosse, City of",67565
Liebenthal,100,KS,https://www.ewg.org/tapwater/system.php?pws=KS2016508,"Liebenthal, City of",67565
Mccracken,190,KS,https://www.ewg.org/tapwater/system.php?pws=KS2016502,"Mccracken, City of",67565
Olmitz,113,KS,https://www.ewg.org/tapwater/system.php?pws=KS2000904,"Olmitz, City of",67565
Otis,274,KS,https://www.ewg.org/tapwater/system.php?pws=KS2016505,"Otis, City of",67565
Pawnee Rock,244,KS,https://www.ewg.org/tapwater/system.php?pws=KS2000916,"Pawnee Rock, City of",67565
Rush Center,165,KS,https://www.ewg.org/tapwater/system.php?pws=KS2016506,"Rush Center, City of",67565
Mccracken,150,KS,https://www.ewg.org/tapwater/system.php?pws=KS2016509,Rush County Rural Water District 1,67565
Schoenchen,208,KS,https://www.ewg.org/tapwater/system.php?pws=KS2005118,"Schoenchen, City of",67565
Susank,34,KS,https://www.ewg.org/tapwater/system.php?pws=KS2000901,"Susank, City of",67565
Timken,74,KS,https://www.ewg.org/tapwater/system.php?pws=KS2016504,"Timken, City of",67565
Victoria,1225,KS,https://www.ewg.org/tapwater/system.php?pws=KS2005119,"Victoria, City of",67565
New Haven,418900,CT,https://www.ewg.org/tapwater/system.php?pws=CT0930011,Regional Water Authority,06615
Victor,40732,NY,https://www.ewg.org/tapwater/system.php?pws=NY3401151,Canandaigua-Farmington Consolidated WD,14544
Canandaigua,34652,NY,https://www.ewg.org/tapwater/system.php?pws=NY3401150,Canandaigua City,14544
Geneva,13914,NY,https://www.ewg.org/tapwater/system.php?pws=NY3401156,Geneva City,14544
Penn Yan,10572,NY,https://www.ewg.org/tapwater/system.php?pws=NY6101263,Penn Yan Village,14544
Gorham,8816,NY,https://www.ewg.org/tapwater/system.php?pws=NY3401170,Gorham Town Water District,14544
Asheville,124300,NC,https://www.ewg.org/tapwater/system.php?pws=NC0111010,City of Asheville,28730
Weaverville,9000,NC,https://www.ewg.org/tapwater/system.php?pws=NC0111015,Woodfin Sanitary Water and Sewer,28730
Black Mountain,6700,NC,https://www.ewg.org/tapwater/system.php?pws=NC0111020,"Black Mountain, Town of",28730
Weaverville,5710,NC,https://www.ewg.org/tapwater/system.php?pws=NC0111025,"Weaverville, Town of",28730
Asheville,1356,NC,https://www.ewg.org/tapwater/system.php?pws=NC0111030,"Biltmore Forest, Town of",28730
Rapid City,66481,SD,https://www.ewg.org/tapwater/system.php?pws=SD4600406,Rapid City,57730
Rapid City,9075,SD,https://www.ewg.org/tapwater/system.php?pws=SD4600274,Rapid Valley Sanitary District,57730
Box Elder,7800,SD,https://www.ewg.org/tapwater/system.php?pws=SD4600046,Box Elder,57730
Ellsworth Afb,6827,SD,https://www.ewg.org/tapwater/system.php?pws=SD4680004,Ellsworth Air Force Base,57730
Keystone,4100,SD,https://www.ewg.org/tapwater/system.php?pws=SD4680046,Nps-mount Rushmore National Memorial,57730
Custer,2067,SD,https://www.ewg.org/tapwater/system.php?pws=SD4600101,Custer,57730
Crazy Horse,2055,SD,https://www.ewg.org/tapwater/system.php?pws=SD4600547,Laughing Water Restaurant At Crazy H,57730
Rapid City,1200,SD,https://www.ewg.org/tapwater/system.php?pws=SD4600263,Colonial Pine Hills Sanitary Distric,57730
Piedmont,1200,SD,https://www.ewg.org/tapwater/system.php?pws=SD4600264,Chapel Lane Water Company,57730
Hill City,950,SD,https://www.ewg.org/tapwater/system.php?pws=SD4600159,Hill City,57730
Albuquerque,601983,NM,https://www.ewg.org/tapwater/system.php?pws=NM3510701,Albuquerque Water System,87122
Albuquerque,35000,NM,https://www.ewg.org/tapwater/system.php?pws=NM3575501,University of New Mexico,87122
Kirtland Afb,22500,NM,https://www.ewg.org/tapwater/system.php?pws=NM3567701,Kirtland Air Force Base,87122
Tijeras,8500,NM,https://www.ewg.org/tapwater/system.php?pws=NM3524626,Entranosa Water and Wastewater Co-op,87122
Albuquerque,6000,NM,https://www.ewg.org/tapwater/system.php?pws=NM3562201,Sandia Peak Utility,87122
Mt Vernon,65118,WA,https://www.ewg.org/tapwater/system.php?pws=WA5379500,Skagit County Public Utility District 1 Judy Reservoir,98221
Mount Vernon,15734,WA,https://www.ewg.org/tapwater/system.php?pws=WA5302200,City of Anacortes,98221
Friday Harbor,3040,WA,https://www.ewg.org/tapwater/system.php?pws=WA5326595,"Friday Harbor, Town Of",98221
Mt Vernon,1945,WA,https://www.ewg.org/tapwater/system.php?pws=WA5300932,Skagit County Public Utility District 1 Fidalgo,98221
La Conner,1850,WA,https://www.ewg.org/tapwater/system.php?pws=WA5378155,Shelter Bay Community Inc.,98221
Eastsound,1632,WA,https://www.ewg.org/tapwater/system.php?pws=WA5322170,Eastsound Water Users Association,98221
Bow,980,WA,https://www.ewg.org/tapwater/system.php?pws=WA5307450,Blanchard Edison Water Association Inc.,98221
Bow,900,WA,https://www.ewg.org/tapwater/system.php?pws=WA5375645,Samish Farms Water Association,98221
Laconner,846,WA,https://www.ewg.org/tapwater/system.php?pws=WA5343350,La Conner Water Department,98221
Concrete,705,WA,https://www.ewg.org/tapwater/system.php?pws=WA5303950,Concrete Utilities,98221
Meadville,17339,PA,https://www.ewg.org/tapwater/system.php?pws=PA6200036,Meadville Area Water Authority,16335
Meadville,338,PA,https://www.ewg.org/tapwater/system.php?pws=PA6200071,Autumn Hills Water Company,16335
Meadville,175,PA,https://www.ewg.org/tapwater/system.php?pws=PA6200039,Woodlands Mobile Home Park,16335
Akron,150,PA,https://www.ewg.org/tapwater/system.php?pws=PA6200031,Lakeview Manor Mobile Home Park,16335
Meadville,65,PA,https://www.ewg.org/tapwater/system.php?pws=PA6200074,Eagle Crest Manor Mobile Home Park,16335
Irwin,150,PA,https://www.ewg.org/tapwater/system.php?pws=PA6200066,Timbercrest Apartments,16335
Meadville,90,PA,https://www.ewg.org/tapwater/system.php?pws=PA6200063,Woodland Heights Apartments,16335
Meadville,225,PA,https://www.ewg.org/tapwater/system.php?pws=PA6200067,Forest Green Estates,16335
Meadville,256,PA,https://www.ewg.org/tapwater/system.php?pws=PA6200035,Meadville Housing Northgate,16335
Pittsburgh,52,PA,https://www.ewg.org/tapwater/system.php?pws=PA6200040,Star Route Estates,16335
Meadville,66,PA,https://www.ewg.org/tapwater/system.php?pws=PA6200037,Denny Ridge Mobile Home Park,16335
Cochranton,119,PA,https://www.ewg.org/tapwater/system.php?pws=PA6200028,Countryside Mobile Home Park,16335
Casper,75,PA,https://www.ewg.org/tapwater/system.php?pws=PA6200033,Crestview Mobile Home Park,16335
Conneaut Lake,100,PA,https://www.ewg.org/tapwater/system.php?pws=PA6200078,Elderberry Mobile Home Park,16335
Guys Mills,110,PA,https://www.ewg.org/tapwater/system.php?pws=PA6200062,Guys Mills Mutual Water Association,16335
Bowling Green,31216,OH,https://www.ewg.org/tapwater/system.php?pws=OH8700311,Bowling Green City,43511
Perrysburg,27000,OH,https://www.ewg.org/tapwater/system.php?pws=OH8701803,Perrysburg City Water,43511
Bowling Green,15600,OH,https://www.ewg.org/tapwater/system.php?pws=OH8752812,Northwestern W and SD - Toledo Svce Area,43511
Napoleon,8749,OH,https://www.ewg.org/tapwater/system.php?pws=OH3500811,Napoleon City,43511
Bowling Green,8445,OH,https://www.ewg.org/tapwater/system.php?pws=OH8704203,Northwestern W and Sd-wtln 200,43511
Cedar Rapids,128201,IA,https://www.ewg.org/tapwater/system.php?pws=IA5715093,Cedar Rapids Water Department,52228
Iowa City,63265,IA,https://www.ewg.org/tapwater/system.php?pws=IA5225079,Iowa City Water Department,52228
Marion,34610,IA,https://www.ewg.org/tapwater/system.php?pws=IA5751035,Marion Municipal Water Department,52228
Iowa City,26684,IA,https://www.ewg.org/tapwater/system.php?pws=IA5225101,University Water System,52228
Coralville,18907,IA,https://www.ewg.org/tapwater/system.php?pws=IA5208071,Coralville Muni Water System,52228
North Liberty,13386,IA,https://www.ewg.org/tapwater/system.php?pws=IA5252072,North Liberty Water Supply,52228
Hiawatha,7024,IA,https://www.ewg.org/tapwater/system.php?pws=IA5735045,Hiawatha Water Department,52228
Vinton,5257,IA,https://www.ewg.org/tapwater/system.php?pws=IA0688053,Vinton Municipal Water Department,52228
Mount Vernon,4506,IA,https://www.ewg.org/tapwater/system.php?pws=IA5758021,Mount Vernon Water Supply,52228
Belle Plaine,2559,IA,https://www.ewg.org/tapwater/system.php?pws=IA0610099,Belle Plaine Water Department,52228
Salt Lake City,900,UT,https://www.ewg.org/tapwater/system.php?pws=UTAH18143,Emigration Improvement District,84108
Slc,343850,UT,https://www.ewg.org/tapwater/system.php?pws=UTAH18026,Salt Lake City Water System,84108
Jacksonville,475,NC,https://www.ewg.org/tapwater/system.php?pws=NC0467103,Beacham Apartments No. 1,28445
Jacksonville,475,NC,https://www.ewg.org/tapwater/system.php?pws=NC0467102,Beacham Apartments No. 2,28445
Hampstead,3055,NC,https://www.ewg.org/tapwater/system.php?pws=NC0471111,Belvedere Plantation,28445
Burgaw,4373,NC,https://www.ewg.org/tapwater/system.php?pws=NC0471010,"Burgaw, Town of",28445
Wilmington,685,NC,https://www.ewg.org/tapwater/system.php?pws=NC7071018,Castle Bay S/d,28445
Hampstead,70,NC,https://www.ewg.org/tapwater/system.php?pws=NC7067005,Chanda`s Ridge,28445
Jacksonville,49000,NC,https://www.ewg.org/tapwater/system.php?pws=NC0467010,City of Jacksonville,28445
Hampstead,102,NC,https://www.ewg.org/tapwater/system.php?pws=NC7071022,Hampstead Pines,28445
Jacksonville,2630,NC,https://www.ewg.org/tapwater/system.php?pws=NC0467136,Lauradale S/d,28445
Willard,120,NC,https://www.ewg.org/tapwater/system.php?pws=NC0471113,Lea Acres Water Company Inc.,28445
Hampstead,99,NC,https://www.ewg.org/tapwater/system.php?pws=NC0471109,Lea`s Waterfront Mobile Home Park,28445
Maple Hill,925,NC,https://www.ewg.org/tapwater/system.php?pws=NC0471025,Maple Hill Water District,28445
Richlands,1328,NC,https://www.ewg.org/tapwater/system.php?pws=NC0467030,Northwest Onslow Water Association,28445
Hampstead,462,NC,https://www.ewg.org/tapwater/system.php?pws=NC0471112,Olde Point S/d,28445
Jacksonville,118820,NC,https://www.ewg.org/tapwater/system.php?pws=NC0467035,Onslow Water And Sewer Authority,28445
Burgaw,15138,NC,https://www.ewg.org/tapwater/system.php?pws=NC7071011,Pender County Utilities,28445
Jacksonville,1539,NC,https://www.ewg.org/tapwater/system.php?pws=NC0467222,Raintree/summersill Estates #2,28445
Midway Park,353,NC,https://www.ewg.org/tapwater/system.php?pws=NC0467164,Sherwood Mobile Home Park,28445
Hampstead,120,NC,https://www.ewg.org/tapwater/system.php?pws=NC0471114,Sidbury`s Mobile Home Park,28445
Jacksonville,133,NC,https://www.ewg.org/tapwater/system.php?pws=NC0467229,Southgate Mobile Home Park,28445
Jacksonville,163,NC,https://www.ewg.org/tapwater/system.php?pws=NC0467224,Summersill Estates No. 1,28445
Surf City,5606,NC,https://www.ewg.org/tapwater/system.php?pws=NC0471015,"Surf City, Town of",28445
Topsail Beach,3198,NC,https://www.ewg.org/tapwater/system.php?pws=NC0471020,"Topsail Beach, Town of",28445
Hampstead,525,NC,https://www.ewg.org/tapwater/system.php?pws=NC0471122,Topsail Greens S/d,28445
-,301,NC,https://www.ewg.org/tapwater/system.php?pws=NC7071054,Town of Atkinson,28445
Camp Lejeune,750,NC,https://www.ewg.org/tapwater/system.php?pws=NC0467046,U.S. Marine Corps Lejeune--rifle Range,28445
Camp Lejeune,37500,NC,https://www.ewg.org/tapwater/system.php?pws=NC0467041,USMC Lejeune - Hadnot Point,28445
Camp Lejeune,17000,NC,https://www.ewg.org/tapwater/system.php?pws=NC0467043,USMC Lejeune--Holcomb Blvd,28445
Camp Lejeune,11500,NC,https://www.ewg.org/tapwater/system.php?pws=NC0467042,USMC Lejeune--New River Air Station,28445
Bennington,298,NE,https://www.ewg.org/tapwater/system.php?pws=NE3105506,West Military Water Company,68028
Bellevue,378,NE,https://www.ewg.org/tapwater/system.php?pws=NE3121486,Martinview Mobile Home Park,68028
Bellevue,870,NE,https://www.ewg.org/tapwater/system.php?pws=NE3121480,Nebe Green Acres Mobile Home Park,68028
Omaha,675,NE,https://www.ewg.org/tapwater/system.php?pws=NE3121363,Meadowbrook Estates Water System,68028
Papillion,390,NE,https://www.ewg.org/tapwater/system.php?pws=NE3121155,Paradise Lakes,68028
Omaha,805,NE,https://www.ewg.org/tapwater/system.php?pws=NE3120928,Maplewood Estates,68028
Elkhorn,300,NE,https://www.ewg.org/tapwater/system.php?pws=NE3120046,Mount Michael High School,68028
Bellevue,120,NE,https://www.ewg.org/tapwater/system.php?pws=NE3115307,Sands Mobile Home Park,68028
Valley,475,NE,https://www.ewg.org/tapwater/system.php?pws=NE3105519,Ginger Woods-Valley,68028
Valley,225,NE,https://www.ewg.org/tapwater/system.php?pws=NE3105520,Ginger Cove-Valley,68028
Papillion,25000,NE,https://www.ewg.org/tapwater/system.php?pws=NE3115313,City of Papillion,68028
Waterloo,330,NE,https://www.ewg.org/tapwater/system.php?pws=NE3105508,Douglas County Sanitary and Improvement District 177 - Riverside Lakes,68028
Omaha,200,NE,https://www.ewg.org/tapwater/system.php?pws=NE3105512,Douglas County Sanitary and Improvement District 258 - Carat Homes,68028
Omaha,200,NE,https://www.ewg.org/tapwater/system.php?pws=NE3130005,Douglas County Sanitary and Improvement District 277 - The Farm,68028
Omaha,450,NE,https://www.ewg.org/tapwater/system.php?pws=NE3105522,Douglas County Sanitary and Improvement District 284 -trailridge Ranches,68028
Omaha,325,NE,https://www.ewg.org/tapwater/system.php?pws=NE3150241,Douglas County Sanitary and Improvement District 303 - Skyline Woods,68028
Gretna,8885,NE,https://www.ewg.org/tapwater/system.php?pws=NE3115303,"Gretna, City of",68028
Omaha,600000,NE,https://www.ewg.org/tapwater/system.php?pws=NE3105507,Metropolitan Utilities District,68028
Gretna,930,NE,https://www.ewg.org/tapwater/system.php?pws=NE3115312,Sarpy County Sanitary and Improvement District #23 - Westmont Subdivision,68028
Papillion,1725,NE,https://www.ewg.org/tapwater/system.php?pws=NE3120787,Sarpy County Sanitary and Improvement District 158 - Tiburon Golf Course,68028
Gretna,60,NE,https://www.ewg.org/tapwater/system.php?pws=NE3115305,Sarpy County Sanitary and Improvement District 24 - Thousand Oaks,68028
Gretna,125,NE,https://www.ewg.org/tapwater/system.php?pws=NE3110920,Sarpy County Sanitary and Improvement District 34 - Sarpy Heights,68028
Papillion,250,NE,https://www.ewg.org/tapwater/system.php?pws=NE3120157,Sarpy County Sanitary and Improvement District 38 - Highland Estates,68028
Springfield,300,NE,https://www.ewg.org/tapwater/system.php?pws=NE3115302,Sarpy County Sanitary and Improvement District 79 - Meadow Oaks,68028
Springfield,275,NE,https://www.ewg.org/tapwater/system.php?pws=NE3115309,Sarpy County Sanitary and Improvement District 81 - Fairview Heights,68028
Plattsmouth,468,NE,https://www.ewg.org/tapwater/system.php?pws=NE3115308,Sarpy County Sanitary and Improvement District 97 - Hawaiian Village,68028
Springfield,1529,NE,https://www.ewg.org/tapwater/system.php?pws=NE3115301,"Springfield, City of",68028
Valley,2000,NE,https://www.ewg.org/tapwater/system.php?pws=NE3105518,"Valley, City of",68028
Waterloo,1300,NE,https://www.ewg.org/tapwater/system.php?pws=NE3105517,"Waterloo, Village of",68028
Mustang,15435,OK,https://www.ewg.org/tapwater/system.php?pws=OK2000922,Mustang,73139
Troy,117581,NY,https://www.ewg.org/tapwater/system.php?pws=NY4100050,City of Troy Public Utilities,12118
Gansevoort,67823,NY,https://www.ewg.org/tapwater/system.php?pws=NY4530222,Saratoga County Water Authority,12118
Burnt Hills,46836,NY,https://www.ewg.org/tapwater/system.php?pws=NY4505658,Burnt Hills-Ballston Lake WD,12118
Clifton Park,39710,NY,https://www.ewg.org/tapwater/system.php?pws=NY4500175,Clifton Park Water Authority,12118
Saratoga Springs,35900,NY,https://www.ewg.org/tapwater/system.php?pws=NY4500168,Saratoga Springs City,12118
Saratoga Springs,30525,NY,https://www.ewg.org/tapwater/system.php?pws=NY4500178,Saratoga Springs City (Geyser Crest),12118
Waterford,24800,NY,https://www.ewg.org/tapwater/system.php?pws=NY4500173,Waterford Water Works,12118
Halfmoon,14599,NY,https://www.ewg.org/tapwater/system.php?pws=NY4519111,Halfmoon Water District (Troy),12118
Rensselaer,10200,NY,https://www.ewg.org/tapwater/system.php?pws=NY4100051,East Greenbush General WD,12118
Wynantskill,9786,NY,https://www.ewg.org/tapwater/system.php?pws=NY4130243,North Greenbush Consolidated District,12118
Boise,223154,ID,https://www.ewg.org/tapwater/system.php?pws=ID4010016,Suez,83716
Meridian,98300,ID,https://www.ewg.org/tapwater/system.php?pws=ID4010097,Meridian Water Department,83716
Kuna,19700,ID,https://www.ewg.org/tapwater/system.php?pws=ID4010085,City of Kuna,83716
Mountain Home,14000,ID,https://www.ewg.org/tapwater/system.php?pws=ID4200032,City of Mountain Home,83716
Garden City,12500,ID,https://www.ewg.org/tapwater/system.php?pws=ID4010066,Garden City Water and Sewer System,83716
Eagle,10400,ID,https://www.ewg.org/tapwater/system.php?pws=ID4010049,Eagle Water Company Inc,83716
Boise,9000,ID,https://www.ewg.org/tapwater/system.php?pws=ID4010022,Capitol Water Corporation,83716
Star,7300,ID,https://www.ewg.org/tapwater/system.php?pws=ID4010220,Star Sewer and Water District Water System,83716
Mountain Home Afb,6500,ID,https://www.ewg.org/tapwater/system.php?pws=ID4200054,Mountain Home Air Force Base,83716
Eagle,3683,ID,https://www.ewg.org/tapwater/system.php?pws=ID4010201,"Eagle, City of (eastern Zone)",83716
Slidell,38612,LA,https://www.ewg.org/tapwater/system.php?pws=LA1103041,Slidell Water Supply,70445
Covington,14700,LA,https://www.ewg.org/tapwater/system.php?pws=LA1103011,Covington Water Supply,70445
Mandeville,13209,LA,https://www.ewg.org/tapwater/system.php?pws=LA1103023,Mandeville Water Supply,70445
Covington,11329,LA,https://www.ewg.org/tapwater/system.php?pws=LA1103079,St Tam Parish - Briarwood Terrace,70445
Covington,11022,LA,https://www.ewg.org/tapwater/system.php?pws=LA1103124,Utilities Inc. - North Park Water Supply,70445
Slidell,10500,LA,https://www.ewg.org/tapwater/system.php?pws=LA1103005,Bayou Liberty Water Association,70445
Slidell,10155,LA,https://www.ewg.org/tapwater/system.php?pws=LA1103013,Eden Isles Water Supply,70445
Covington,9600,LA,https://www.ewg.org/tapwater/system.php?pws=LA1103053,St. Tam Parish - Cross Gates SD,70445
Mandeville,8031,LA,https://www.ewg.org/tapwater/system.php?pws=LA1103118,H2o Systems Inc. - Greenleaves Utilities,70445
Covington,7731,LA,https://www.ewg.org/tapwater/system.php?pws=LA1103149,St. Tam Parish-faubourg-coquille,70445
Calumet,646,MI,https://www.ewg.org/tapwater/system.php?pws=MI0003270,Torch Lake Township,49622
Calumet,3717,MI,https://www.ewg.org/tapwater/system.php?pws=MI0004800,Michigan-american Water Company,49622
Antigo,25,WI,https://www.ewg.org/tapwater/system.php?pws=WI7370123,2yk Llc,54403
Abbotsford,1956,WI,https://www.ewg.org/tapwater/system.php?pws=WI7370148,Abbotsford Waterworks,54403
Athens,1102,WI,https://www.ewg.org/tapwater/system.php?pws=WI7370149,Athens Waterworks,54403
Marshfield,96,WI,https://www.ewg.org/tapwater/system.php?pws=WI7370540,Boardwalk Mobile Home Park,54403
Brokaw,140,WI,https://www.ewg.org/tapwater/system.php?pws=WI7370107,Brokaw Waterworks,54403
Colby,1829,WI,https://www.ewg.org/tapwater/system.php?pws=WI7370169,Colby Waterworks,54403
Mosinee,120,WI,https://www.ewg.org/tapwater/system.php?pws=WI7370158,Deer Trail Village,54403
Edgar,1491,WI,https://www.ewg.org/tapwater/system.php?pws=WI7370150,Edgar Waterworks,54403
Mosinee,70,WI,https://www.ewg.org/tapwater/system.php?pws=WI7371500,Edgewood Country Estates,54403
Hatley,385,WI,https://www.ewg.org/tapwater/system.php?pws=WI7371256,Hatley Waterworks,54403
Kronenwetter,6080,WI,https://www.ewg.org/tapwater/system.php?pws=WI7371700,Kronenwetter Water & Sewer Utility,54403
Mosinee,145,WI,https://www.ewg.org/tapwater/system.php?pws=WI7370157,Maizefield Mhc (manufactured Home Community),54403
Marathon City,1695,WI,https://www.ewg.org/tapwater/system.php?pws=WI7370151,Marathon City Waterworks,54403
Mosinee,3208,WI,https://www.ewg.org/tapwater/system.php?pws=WI7370159,Mosinee Waterworks,54403
Wausau,5850,WI,https://www.ewg.org/tapwater/system.php?pws=WI7370660,Rib Mountain Sanitary District,54403
Rothschild,3190,WI,https://www.ewg.org/tapwater/system.php?pws=WI7370161,Rothschild Waterworks,54403
Schofield,2117,WI,https://www.ewg.org/tapwater/system.php?pws=WI7370162,Schofield Waterworks,54403
Spencer,1941,WI,https://www.ewg.org/tapwater/system.php?pws=WI7370108,Spencer Waterworks,54403
Stratford,1651,WI,https://www.ewg.org/tapwater/system.php?pws=WI7370168,Stratford Waterworks,54403
Wausau,39106,WI,https://www.ewg.org/tapwater/system.php?pws=WI7370102,Wausau Waterworks,54403
Marathon,50,WI,https://www.ewg.org/tapwater/system.php?pws=WI7370152,West Gate Estates Mobile Hms,54403
Weston,15045,WI,https://www.ewg.org/tapwater/system.php?pws=WI7370163,Weston Municipal Utilities,54403
Bagdad,14660,KY,https://www.ewg.org/tapwater/system.php?pws=KY1060324,North Shelby Water District,40065
Shelbyville,23760,KY,https://www.ewg.org/tapwater/system.php?pws=KY1060394,Shelbyville Water & Sewer Commission,40065
Bagdad,6445,KY,https://www.ewg.org/tapwater/system.php?pws=KY1060436,U.S. 60 Water District,40065
Simpsonville,5622,KY,https://www.ewg.org/tapwater/system.php?pws=KY1060457,West Shelby Water District,40065
Milwaukee,647290,WI,https://www.ewg.org/tapwater/system.php?pws=WI2410100,Milwaukee Waterworks,53214
Wauwatosa,49064,WI,https://www.ewg.org/tapwater/system.php?pws=WI2410596,Wauwatosa Waterworks,53214
Farmers Branch,31560,TX,https://www.ewg.org/tapwater/system.php?pws=TX0570047,City of Farmers Branch,75006
Addison,15458,TX,https://www.ewg.org/tapwater/system.php?pws=TX0570031,Town of Addison,75006
Dallas,1197816,TX,https://www.ewg.org/tapwater/system.php?pws=TX0570004,Dallas Water Utility,75006
Coppell,39880,TX,https://www.ewg.org/tapwater/system.php?pws=TX0570040,City of Coppell,75006
Irving,238829,TX,https://www.ewg.org/tapwater/system.php?pws=TX0570050,City of Irving,75006
Canton,98260,OH,https://www.ewg.org/tapwater/system.php?pws=OH7608112,Canton Public Water System,44641
Massillon,90000,OH,https://www.ewg.org/tapwater/system.php?pws=OH7604512,Aqua Ohio - City of Massillon,44641
Alliance,22232,OH,https://www.ewg.org/tapwater/system.php?pws=OH7600011,Alliance City PWS,44641
North Canton,17404,OH,https://www.ewg.org/tapwater/system.php?pws=OH7604312,North Canton City PWS,44641
Louisville,9100,OH,https://www.ewg.org/tapwater/system.php?pws=OH7603012,Louisville City Public Water System,44641
Glendive,120,MT,https://www.ewg.org/tapwater/system.php?pws=MT0002738,Casitas Del Mesa Mobile Home Park,59262
Belgrade,50,MT,https://www.ewg.org/tapwater/system.php?pws=MT0002939,Centennial Estates Of Glendive,59262
Fairview,1000,MT,https://www.ewg.org/tapwater/system.php?pws=MT0000213,"Fairview, Town of",59262
Glendive,1200,MT,https://www.ewg.org/tapwater/system.php?pws=MT0000233,Forest Park Water Rsid 24,59262
Glendive,5500,MT,https://www.ewg.org/tapwater/system.php?pws=MT0000229,"Glendive, City of",59262
Glendive,500,MT,https://www.ewg.org/tapwater/system.php?pws=MT0000570,Highland Park Utilities Association,59262
Glendive,90,MT,https://www.ewg.org/tapwater/system.php?pws=MT0000410,I 94 Mobile Home Park,59262
Lambert,150,MT,https://www.ewg.org/tapwater/system.php?pws=MT0000269,Lambert Sewer and Water Association,59262
Sidney,45,MT,https://www.ewg.org/tapwater/system.php?pws=MT0000644,Mount Pleasant Estates,59262
Bismark,30,MT,https://www.ewg.org/tapwater/system.php?pws=MT0004873,Rainbow Estates,59262
Richey,180,MT,https://www.ewg.org/tapwater/system.php?pws=MT0000316,"Richey, Town of",59262
Sidney,85,MT,https://www.ewg.org/tapwater/system.php?pws=MT0000514,Richland County Valley View Wua,59262
Sidney,5000,MT,https://www.ewg.org/tapwater/system.php?pws=MT0000330,"Sidney, City of",59262
Bozeman,100,MT,https://www.ewg.org/tapwater/system.php?pws=MT0000408,Whispering Trees Mobile Park,59262
Starke,900,FL,https://www.ewg.org/tapwater/system.php?pws=FL2100150,Camp Blanding Joint Training Site,32065
Green Cove Springs,6500,FL,https://www.ewg.org/tapwater/system.php?pws=FL2100437,Green Cove Springs Water Treatment Plant,32065
Keystone Heights,6255,FL,https://www.ewg.org/tapwater/system.php?pws=FL2100610,Keystone Postmaster Grid,32065
Orange Park,10294,FL,https://www.ewg.org/tapwater/system.php?pws=FL2100626,Lake Asbury WTP,32065
Lake Geneva,66,FL,https://www.ewg.org/tapwater/system.php?pws=FL2100636,Lake Geneva Mobile Home Park,32065
Middleburg,95,FL,https://www.ewg.org/tapwater/system.php?pws=FL2104345,Middleburg Bluff Apartments,32065
Middleburg,109991,FL,https://www.ewg.org/tapwater/system.php?pws=FL2100741,Orange Park Grid,32065
Orange Park,9042,FL,https://www.ewg.org/tapwater/system.php?pws=FL2101182,Orange Park Water Plant,32065
Fleming Island,36327,FL,https://www.ewg.org/tapwater/system.php?pws=FL2104391,Pace/Fleming Grid,32065
Penney Farms,450,FL,https://www.ewg.org/tapwater/system.php?pws=FL2100882,Penney Farms Retirement Community Water Treatment Plant,32065
Penney Farms,350,FL,https://www.ewg.org/tapwater/system.php?pws=FL2101019,Penney Farms Water Treatment Plant,32065
Green Cove Springs,231,FL,https://www.ewg.org/tapwater/system.php?pws=FL2104448,Peter's Creek Water Treatment Plant,32065
Green Cove Springs,193,FL,https://www.ewg.org/tapwater/system.php?pws=FL2104351,Pier Station Water Treatment Plant,32065
Middleburg,3353,FL,https://www.ewg.org/tapwater/system.php?pws=FL2104332,Ravines Water Treatment Plant,32065
Green Cove Springs,1172,FL,https://www.ewg.org/tapwater/system.php?pws=FL2100709,St. Johns Landing,32065
Red Bluff,63,CA,https://www.ewg.org/tapwater/system.php?pws=CA5200500,Reeds Creek Estates,96080
Cottonwood,3450,CA,https://www.ewg.org/tapwater/system.php?pws=CA5210005,Rio Alto Water District,96080
Red Bluff,145,CA,https://www.ewg.org/tapwater/system.php?pws=CA5200570,Surrey Village Water Company Inc.,96080
Red Bluff,63,CA,https://www.ewg.org/tapwater/system.php?pws=CA5200500,Reeds Creek Estates,96080
Red Bluff,14025,CA,https://www.ewg.org/tapwater/system.php?pws=CA5210004,City of Red Bluff,96080
Gerber,88,CA,https://www.ewg.org/tapwater/system.php?pws=CA5200560,Mira Monte Water Company,96080
Gerber,400,CA,https://www.ewg.org/tapwater/system.php?pws=CA5200012,Vista Grande Water System,96080
Red Bluff,102,CA,https://www.ewg.org/tapwater/system.php?pws=CA5201147,Golden Meadows Community Services District,96080
Red Bluff,198,CA,https://www.ewg.org/tapwater/system.php?pws=CA5200508,Rio Vista Mobile Home Park,96080
Red Bluff,40,CA,https://www.ewg.org/tapwater/system.php?pws=CA5200555,Rio Ranch Community Services District,96080
Redding,25,CA,https://www.ewg.org/tapwater/system.php?pws=CA4500106,Rio Vista Mobilehome Estates,96080
Red Bluff,40,CA,https://www.ewg.org/tapwater/system.php?pws=CA5200013,Womack Subdivision Mutual Water Company,96080
Red Bluff,63,CA,https://www.ewg.org/tapwater/system.php?pws=CA5200500,Reeds Creek Estates,96080
Red Bluff,75,CA,https://www.ewg.org/tapwater/system.php?pws=CA5200014,Wilson Acres Mutual Water,96080
Red Bluff,114,CA,https://www.ewg.org/tapwater/system.php?pws=CA5200510,Snug Harbor Mobile Village,96080
Redding,25,CA,https://www.ewg.org/tapwater/system.php?pws=CA4500106,Rio Vista Mobilehome Estates,96080
Red Bluff,25,CA,https://www.ewg.org/tapwater/system.php?pws=CA5201140,Antoinette Mutual Water Company,96080
El Dorado Hills,75,CA,https://www.ewg.org/tapwater/system.php?pws=CA5200539,Friendly Acres Mobile Home Park,96080
Red Bluff,75,CA,https://www.ewg.org/tapwater/system.php?pws=CA5200007,Howell's Lakeside Water Company,96080
Red Bluff,14025,CA,https://www.ewg.org/tapwater/system.php?pws=CA5210004,City of Red Bluff,96080
Red Bluff,75,CA,https://www.ewg.org/tapwater/system.php?pws=CA5200008,Breese Subdivision 2,96080
Red Bluff,100,CA,https://www.ewg.org/tapwater/system.php?pws=CA5200558,River View Mobile Home Community LLC,96080
Red Bluff,25,CA,https://www.ewg.org/tapwater/system.php?pws=CA5200588,Juanita Court Mutual Water,96080
Red Bluff,36,CA,https://www.ewg.org/tapwater/system.php?pws=CA5200575,Rancho Colorado Ws,96080
Red Bluff,75,CA,https://www.ewg.org/tapwater/system.php?pws=CA5200014,Wilson Acres Mutual Water,96080
Redding,25,CA,https://www.ewg.org/tapwater/system.php?pws=CA4500106,Rio Vista Mobilehome Estates,96080
Livermore,44,CA,https://www.ewg.org/tapwater/system.php?pws=CA5200512,Bend Mobilehome & Rv Park,96080
Red Bluff,14025,CA,https://www.ewg.org/tapwater/system.php?pws=CA5210004,City of Red Bluff,96080
Red Bluff,75,CA,https://www.ewg.org/tapwater/system.php?pws=CA5200548,Lassen View Water District,96080
Redding,70,CA,https://www.ewg.org/tapwater/system.php?pws=CA5200546,Antelope-homewood Mobile Home Park,96080
Red Bluff,14025,CA,https://www.ewg.org/tapwater/system.php?pws=CA5210004,City of Red Bluff,96080
Gerber,40,CA,https://www.ewg.org/tapwater/system.php?pws=CA5200584,Little Avenue Water System,96080
Red Bluff,14025,CA,https://www.ewg.org/tapwater/system.php?pws=CA5210004,City of Red Bluff,96080
Gerber,85,CA,https://www.ewg.org/tapwater/system.php?pws=CA5200545,Modern Village Mutual Water Company,96080
Gerber,85,CA,https://www.ewg.org/tapwater/system.php?pws=CA5200545,Modern Village Mutual Water Company,96080
Walnut Creek,75,CA,https://www.ewg.org/tapwater/system.php?pws=CA5200547,Gateway Mobile Home Park,96080
Red Bluff,14025,CA,https://www.ewg.org/tapwater/system.php?pws=CA5210004,City of Red Bluff,96080
Walnut Creek,75,CA,https://www.ewg.org/tapwater/system.php?pws=CA5200547,Gateway Mobile Home Park,96080
Red Bluff,120,CA,https://www.ewg.org/tapwater/system.php?pws=CA5200571,Mountain Valley Apartments & Rvp,96080
Red Bluff,198,CA,https://www.ewg.org/tapwater/system.php?pws=CA5200508,Rio Vista Mobile Home Park,96080
Red Bluff,120,CA,https://www.ewg.org/tapwater/system.php?pws=CA5200571,Mountain Valley Apartments & Rvp,96080
Red Bluff,114,CA,https://www.ewg.org/tapwater/system.php?pws=CA5200510,Snug Harbor Mobile Village,96080
Red Bluff,14025,CA,https://www.ewg.org/tapwater/system.php?pws=CA5210004,City of Red Bluff,96080
Red Bluff,36,CA,https://www.ewg.org/tapwater/system.php?pws=CA5200575,Rancho Colorado Ws,96080
Red Bluff,14025,CA,https://www.ewg.org/tapwater/system.php?pws=CA5210004,City of Red Bluff,96080
Gerber,40,CA,https://www.ewg.org/tapwater/system.php?pws=CA5200584,Little Avenue Water System,96080
Hamilton,85,MT,https://www.ewg.org/tapwater/system.php?pws=MT0003003,Antigone Acres Homeowners Association,59870
Missoula,70,MT,https://www.ewg.org/tapwater/system.php?pws=MT0000504,Big Sky Trailer Court Hamilton,59870
Hamilton,45,MT,https://www.ewg.org/tapwater/system.php?pws=MT0002128,Bitterroot Pines Trct Florence,59870
Columbia Falls,70,MT,https://www.ewg.org/tapwater/system.php?pws=MT0001083,Bluebird Mb Hm Park Hamilton,59870
Corvallis,100,MT,https://www.ewg.org/tapwater/system.php?pws=MT0004438,Centennial Subdivision,59870
Corvallis,80,MT,https://www.ewg.org/tapwater/system.php?pws=MT0002799,Corvallis Mobile Village,59870
Hamilton,68,MT,https://www.ewg.org/tapwater/system.php?pws=MT0004517,Daly Estates Subdivision,59870
Darby,850,MT,https://www.ewg.org/tapwater/system.php?pws=MT0000195,"Darby, Town of",59870
Florence,65,MT,https://www.ewg.org/tapwater/system.php?pws=MT0003594,Forest View Homeowners Association,59870
Missoula,53,MT,https://www.ewg.org/tapwater/system.php?pws=MT0001079,Hamilton Mobile Village,59870
Hamilton,4500,MT,https://www.ewg.org/tapwater/system.php?pws=MT0000234,"Hamilton, City of",59870
Missoula,50,MT,https://www.ewg.org/tapwater/system.php?pws=MT0001080,Honey Lane Court Hamilton,59870
Victor,51,MT,https://www.ewg.org/tapwater/system.php?pws=MT0004241,Kootenai Creek Village,59870
Missoula,40,MT,https://www.ewg.org/tapwater/system.php?pws=MT0002132,Mountain Shadows Estates Stevensville,59870
Pinesdale,800,MT,https://www.ewg.org/tapwater/system.php?pws=MT0002926,"Pinesdale, Town of",59870
Stevensville,1970,MT,https://www.ewg.org/tapwater/system.php?pws=MT0000335,"Stevensville, Town of",59870
Hamilton,150,MT,https://www.ewg.org/tapwater/system.php?pws=MT0003982,"Stock Farm, The",59870
Darby,290,MT,https://www.ewg.org/tapwater/system.php?pws=MT0062207,Trapper Creek Job Corps,59870
Hamilton,45,MT,https://www.ewg.org/tapwater/system.php?pws=MT0003277,Wards Cove Water Users,59870
Billings,90,MT,https://www.ewg.org/tapwater/system.php?pws=MT0000634,Westana Mobile Manor Hamilton,59870
Missoula,100,MT,https://www.ewg.org/tapwater/system.php?pws=MT0000506,"White Bird Community, The",59870
Hamilton,86,MT,https://www.ewg.org/tapwater/system.php?pws=MT0004533,"Wildflower, The",59870
Los Osos,1957,CA,https://www.ewg.org/tapwater/system.php?pws=CA4010023,Golden State Water Company - Edna,93401
Grover Beach,60,CA,https://www.ewg.org/tapwater/system.php?pws=CA4000202,Edna Ranch Mutual Water Company-east,93401
San Luis Obispo,25,CA,https://www.ewg.org/tapwater/system.php?pws=CA4000214,Baron Canyon Mutual Water Company,93401
San Luis Obispo,75,CA,https://www.ewg.org/tapwater/system.php?pws=CA4000744,Afuera De Chorro Water Company,93401
,0,CA,https://www.ewg.org/tapwater/system.php?pws=,,93401
San Luis Obispo,55,CA,https://www.ewg.org/tapwater/system.php?pws=CA4000632,Hidden Hills Mobilodge,93401
San Luis Obispo,30,CA,https://www.ewg.org/tapwater/system.php?pws=CA4000563,Higuera Apartments,93401
,0,CA,https://www.ewg.org/tapwater/system.php?pws=,,93401
Arroyo Grande,120,CA,https://www.ewg.org/tapwater/system.php?pws=CA4000765,Varian Ranch Mutual Water,93401
San Luis Obispo,75,CA,https://www.ewg.org/tapwater/system.php?pws=CA4000744,Afuera De Chorro Water Company,93401
San Luis Obispo,45119,CA,https://www.ewg.org/tapwater/system.php?pws=CA4010009,San Luis Obispo Water Department,93401
Bristol,1954,FL,https://www.ewg.org/tapwater/system.php?pws=FL1390087,"Bristol, City of Water System",32321
Bristol,281,FL,https://www.ewg.org/tapwater/system.php?pws=FL1394006,Estiffanulga Water System,32321
Bristol,1290,FL,https://www.ewg.org/tapwater/system.php?pws=FL1390901,"Hosford, Town of Water System",32321
Bristol,314,FL,https://www.ewg.org/tapwater/system.php?pws=FL1394009,Lake Mystic Water System,32321
Bristol,1615,FL,https://www.ewg.org/tapwater/system.php?pws=FL1394001,Liberty Correctional Institution,32321
Bristol,166,FL,https://www.ewg.org/tapwater/system.php?pws=FL1394012,Rock Bluff Water System,32321
Bristol,163,FL,https://www.ewg.org/tapwater/system.php?pws=FL1394003,Sumatra Water System,32321
Quincy,65,FL,https://www.ewg.org/tapwater/system.php?pws=FL1390651,Sweetwater Water System,32321
Citrus Heights,66500,CA,https://www.ewg.org/tapwater/system.php?pws=CA3410006,Citrus Heights Water District,95628
Carmichael,40000,CA,https://www.ewg.org/tapwater/system.php?pws=CA3410004,Carmichael Water District,95628
Sacramento,46606,CA,https://www.ewg.org/tapwater/system.php?pws=CA3410013,California American Water Company - Lincoln Oaks,95628
Sacramento,171200,CA,https://www.ewg.org/tapwater/system.php?pws=CA3410001,Sacramento Suburban Water District,95628
Orangevale,15200,CA,https://www.ewg.org/tapwater/system.php?pws=CA3410016,Orange Vale Water Company,95628
Carmichael,40000,CA,https://www.ewg.org/tapwater/system.php?pws=CA3410004,Carmichael Water District,95628
Fair Oaks,40000,CA,https://www.ewg.org/tapwater/system.php?pws=CA3410009,Fair Oaks Water District,95628
Rancho Cordova,47810,CA,https://www.ewg.org/tapwater/system.php?pws=CA3410015,Golden State Water Company - Cordova,95628
Fair Oaks,40000,CA,https://www.ewg.org/tapwater/system.php?pws=CA3410009,Fair Oaks Water District,95628
Orangevale,15200,CA,https://www.ewg.org/tapwater/system.php?pws=CA3410016,Orange Vale Water Company,95628
Citrus Heights,66500,CA,https://www.ewg.org/tapwater/system.php?pws=CA3410006,Citrus Heights Water District,95628
Fair Oaks,40000,CA,https://www.ewg.org/tapwater/system.php?pws=CA3410009,Fair Oaks Water District,95628
Bakersfield,303,MO,https://www.ewg.org/tapwater/system.php?pws=MO5011066,Bakersfield PWS,65626
Tecumseh,70,MO,https://www.ewg.org/tapwater/system.php?pws=MO5079504,East Wind Community,65626
Gainesville,773,MO,https://www.ewg.org/tapwater/system.php?pws=MO5010297,Gainesville PWS,65626
West Plains,80,MO,https://www.ewg.org/tapwater/system.php?pws=MO4048241,Henrys Mobile Home Park,65626
Pomona,840,MO,https://www.ewg.org/tapwater/system.php?pws=MO4024264,Howell County Public Water Supply District 1,65626
Willow Springs,2000,MO,https://www.ewg.org/tapwater/system.php?pws=MO4021164,Howell County Public Water Supply District 3,65626
West Plains,952,MO,https://www.ewg.org/tapwater/system.php?pws=MO4021376,Howell Oregon 2 West,65626
West Plains,1926,MO,https://www.ewg.org/tapwater/system.php?pws=MO4024267,Howell Oregon County Public Water Supply District 2 North,65626
West Plains,164,MO,https://www.ewg.org/tapwater/system.php?pws=MO4024266,Howell Oregon County Public Water Supply District 2 South,65626
Mountain View,2791,MO,https://www.ewg.org/tapwater/system.php?pws=MO4010551,Mountain View PWS,65626
Theodosia,243,MO,https://www.ewg.org/tapwater/system.php?pws=MO5024444,Ozark County Public Water Supply District 1,65626
Theodosia,60,MO,https://www.ewg.org/tapwater/system.php?pws=MO5030209,Sundown Water System Inc.,65626
West Plains,12000,MO,https://www.ewg.org/tapwater/system.php?pws=MO4010853,West Plains,65626
Willow Springs,2185,MO,https://www.ewg.org/tapwater/system.php?pws=MO4010862,Willow Springs PWS,65626
Charlotte,833579,NC,https://www.ewg.org/tapwater/system.php?pws=NC0160010,Charlotte Water,28036
Concord,87654,NC,https://www.ewg.org/tapwater/system.php?pws=NC0113010,City of Concord,28036
Salisbury,47851,NC,https://www.ewg.org/tapwater/system.php?pws=NC0180010,Salisbury-Rowan,28036
Kannapolis,44950,NC,https://www.ewg.org/tapwater/system.php?pws=NC0180065,City of Kannapolis,28036
Mooresville,34887,NC,https://www.ewg.org/tapwater/system.php?pws=NC0149015,Town of Mooresville,28036
Statesville,24981,NC,https://www.ewg.org/tapwater/system.php?pws=NC0149010,City of Statesville,28036
Statesville,22102,NC,https://www.ewg.org/tapwater/system.php?pws=NC0149025,Iredell Water Corporation,28036
Harrisburg,14633,NC,https://www.ewg.org/tapwater/system.php?pws=NC0113025,Harrisburg,28036
Statesville,5530,NC,https://www.ewg.org/tapwater/system.php?pws=NC0149158,West Iredell Water Corporation,28036
China Grove,4732,NC,https://www.ewg.org/tapwater/system.php?pws=NC0180040,"China Grove, Town of",28036
Scott AFB,6779,IL,https://www.ewg.org/tapwater/system.php?pws=IL1635237,American Water - Scott Air Force Base,62236
Cahokia,4710,IL,https://www.ewg.org/tapwater/system.php?pws=IL1630200,Cahokia,62236
Caseyville,12337,IL,https://www.ewg.org/tapwater/system.php?pws=IL1630250,Caseyville,62236
Columbia,9783,IL,https://www.ewg.org/tapwater/system.php?pws=IL1330050,Columbia,62236
Cahokia,19250,IL,https://www.ewg.org/tapwater/system.php?pws=IL1635030,Commonfields of Cahokia PWD,62236
Jerseyville,510,IL,https://www.ewg.org/tapwater/system.php?pws=IL1630070,Concordia Water Cooperative,62236
Dupo,5000,IL,https://www.ewg.org/tapwater/system.php?pws=IL1630350,Dupo,62236
Fayetteville,455,IL,https://www.ewg.org/tapwater/system.php?pws=IL1630550,Fayetteville,62236
Valmeyer,2325,IL,https://www.ewg.org/tapwater/system.php?pws=IL1330020,Fountain Water District,62236
Freeburg,4398,IL,https://www.ewg.org/tapwater/system.php?pws=IL1630600,Freeburg,62236
Freeburg,300,IL,https://www.ewg.org/tapwater/system.php?pws=IL1635300,Fsh Water Commission,62236
Hecker,608,IL,https://www.ewg.org/tapwater/system.php?pws=IL1330150,Hecker,62236
New Athens,1,IL,https://www.ewg.org/tapwater/system.php?pws=IL1635110,Kaskaskia Water District,62236
Lebanon,4541,IL,https://www.ewg.org/tapwater/system.php?pws=IL1630650,Lebanon,62236
Lenzburg,615,IL,https://www.ewg.org/tapwater/system.php?pws=IL1630700,Lenzburg,62236
Maeystown,230,IL,https://www.ewg.org/tapwater/system.php?pws=IL1330200,Maeystown,62236
Marissa,2200,IL,https://www.ewg.org/tapwater/system.php?pws=IL1630750,Marissa,62236
Mascoutah,7110,IL,https://www.ewg.org/tapwater/system.php?pws=IL1630800,Mascoutah,62236
Millstadt,4380,IL,https://www.ewg.org/tapwater/system.php?pws=IL1630850,Millstadt,62236
Collinsville,2200,IL,https://www.ewg.org/tapwater/system.php?pws=IL1635050,Mound Public Water District,62236
New Athens,2200,IL,https://www.ewg.org/tapwater/system.php?pws=IL1631050,New Athens,62236
O'fallon,48066,IL,https://www.ewg.org/tapwater/system.php?pws=IL1631100,O Fallon,62236
East Carondelet,2814,IL,https://www.ewg.org/tapwater/system.php?pws=IL1635070,Prairie Dupont Public Water District,62236
Mascoutah,300,IL,https://www.ewg.org/tapwater/system.php?pws=IL1635090,S L M Water Commission,62236
Smithton,3001,IL,https://www.ewg.org/tapwater/system.php?pws=IL1631300,Smithton,62236
St Libory,583,IL,https://www.ewg.org/tapwater/system.php?pws=IL1631200,St. Libory,62236
Summerfield,500,IL,https://www.ewg.org/tapwater/system.php?pws=IL1631350,Summerfield,62236
Valmeyer,1192,IL,https://www.ewg.org/tapwater/system.php?pws=IL1330250,Valmeyer,62236
Waterloo,9728,IL,https://www.ewg.org/tapwater/system.php?pws=IL1330300,Waterloo,62236
Accokeek,300,MD,https://www.ewg.org/tapwater/system.php?pws=MD0160004,Calvert Manor,20705
Waldorf,780,MD,https://www.ewg.org/tapwater/system.php?pws=MD0160207,Cedarville Mobile Home Park,20705
Millersville,330,MD,https://www.ewg.org/tapwater/system.php?pws=MD0160003,Cheltenham Boys Village,20705
Bowie,25000,MD,https://www.ewg.org/tapwater/system.php?pws=MD0160002,City of Bowie,20705
Rockville,52000,MD,https://www.ewg.org/tapwater/system.php?pws=MD0150003,City of Rockville,20705
Waldorf,160,MD,https://www.ewg.org/tapwater/system.php?pws=MD0160203,"Edgemeade Road Re, Llc.",20705
Poolesville,5400,MD,https://www.ewg.org/tapwater/system.php?pws=MD0150002,Town of Poolesville,20705
Silver Spring,1800000,MD,https://www.ewg.org/tapwater/system.php?pws=MD0150005,Washington Suburban Sanitary Commission,20705
Barnesville,2600,MN,https://www.ewg.org/tapwater/system.php?pws=MN1140001,Barnesville,56536
Comstock,95,MN,https://www.ewg.org/tapwater/system.php?pws=MN1140002,Comstock,56536
Dilworth,4024,MN,https://www.ewg.org/tapwater/system.php?pws=MN1140003,Dilworth,56536
Felton,171,MN,https://www.ewg.org/tapwater/system.php?pws=MN1140012,Felton,56536
Georgetown,100,MN,https://www.ewg.org/tapwater/system.php?pws=MN1140014,Georgetown,56536
Glyndon,1393,MN,https://www.ewg.org/tapwater/system.php?pws=MN1140005,Glyndon,56536
Hawley,2094,MN,https://www.ewg.org/tapwater/system.php?pws=MN1140006,Hawley,56536
Hitterdal,201,MN,https://www.ewg.org/tapwater/system.php?pws=MN1140007,Hitterdal,56536
Glyndon,69,MN,https://www.ewg.org/tapwater/system.php?pws=MN1140016,John Bouton Housing Development,56536
Moorhead,40000,MN,https://www.ewg.org/tapwater/system.php?pws=MN1140008,Moorhead,56536
Sabin,522,MN,https://www.ewg.org/tapwater/system.php?pws=MN1140010,Sabin,56536
Glyndon,170,MN,https://www.ewg.org/tapwater/system.php?pws=MN1140020,Spring Prairie Colony,56536
Ulen,547,MN,https://www.ewg.org/tapwater/system.php?pws=MN1140011,Ulen,56536
Quincy,93681,MA,https://www.ewg.org/tapwater/system.php?pws=MA3243000,Quincy Water Department (MWRA),02186
Boston,617594,MA,https://www.ewg.org/tapwater/system.php?pws=MA3035000,Boston Water and Sewer Commission (MWRA),02186
Randolph,33375,MA,https://www.ewg.org/tapwater/system.php?pws=MA4244000,Randolph Water Department,02186
Canton,21443,MA,https://www.ewg.org/tapwater/system.php?pws=MA4050000,Canton Water Department (MWRA),02186
Las Cruces,93030,NM,https://www.ewg.org/tapwater/system.php?pws=NM3511707,Las Cruces Municipal Water System,88007
Las Cruces,24302,NM,https://www.ewg.org/tapwater/system.php?pws=NM3528707,New Mexico State University,88007
Sunland Park,20881,NM,https://www.ewg.org/tapwater/system.php?pws=NM3502507,Camino Real Regional Utility Authority,88007
Dona Ana,11214,NM,https://www.ewg.org/tapwater/system.php?pws=NM3554307,Dona Ana MDWCA,88007
Chaparral,10839,NM,https://www.ewg.org/tapwater/system.php?pws=NM3529207,Lake Section Water Company,88007
Anthony,9972,NM,https://www.ewg.org/tapwater/system.php?pws=NM3502407,Lower Rio Grande Public Water Works Authority,88007
Organ,8932,NM,https://www.ewg.org/tapwater/system.php?pws=NM3572007,Moongate Water System,88007
Anthony,7904,NM,https://www.ewg.org/tapwater/system.php?pws=NM3511207,Anthony Water & Sanitation District,88007
Organ,6208,NM,https://www.ewg.org/tapwater/system.php?pws=NM3501207,Moongate West,88007
White Sands Missile Range,4300,NM,https://www.ewg.org/tapwater/system.php?pws=NM3568007,White Sands Missile Range (main Post)-ff,88007
Bonner Springs,7553,KS,https://www.ewg.org/tapwater/system.php?pws=KS2020904,"Bonner Springs, City of",66111
Kansas City,149636,KS,https://www.ewg.org/tapwater/system.php?pws=KS2020906,Kansas City Board of Public Utilities,66111
Youngtown,11600,AZ,https://www.ewg.org/tapwater/system.php?pws=AZ0407056,Epcor Water - Paradise Valley/Scottsdale,85018
Scottsdale,230000,AZ,https://www.ewg.org/tapwater/system.php?pws=AZ0407098,City of Scottsdale,85018
Medford,89280,OR,https://www.ewg.org/tapwater/system.php?pws=OR4100513,Medford Water Commission,97537
Ashland,21505,OR,https://www.ewg.org/tapwater/system.php?pws=OR4100047,Ashland Water Department,97537
Central Point,17025,OR,https://www.ewg.org/tapwater/system.php?pws=OR4100178,City of Central Point,97537
Eagle Point,8855,OR,https://www.ewg.org/tapwater/system.php?pws=OR4100267,"Eagle Point, City of",97537
Talent,6650,OR,https://www.ewg.org/tapwater/system.php?pws=OR4100857,"Talent, City of",97537
Phoenix,4603,OR,https://www.ewg.org/tapwater/system.php?pws=OR4100625,"Phoenix, City of",97537
Jacksonville,2750,OR,https://www.ewg.org/tapwater/system.php?pws=OR4100405,"Jacksonville, City of",97537
Rogue River,2000,OR,https://www.ewg.org/tapwater/system.php?pws=OR4100712,"Rogue River, City of",97537
Gold Hill,1115,OR,https://www.ewg.org/tapwater/system.php?pws=OR4100333,"Gold Hill, City of",97537
Newberg,505,OR,https://www.ewg.org/tapwater/system.php?pws=OR4101520,Hiland Water Company - Shady Cove,97537
Kingston,32310,NY,https://www.ewg.org/tapwater/system.php?pws=NY5503374,Kingston Water District,12528
Saugerties,8635,NY,https://www.ewg.org/tapwater/system.php?pws=NY5503386,Saugerties (village) Water Dis,12528
New Paltz,7628,NY,https://www.ewg.org/tapwater/system.php?pws=NY5503379,New Paltz (village) Water District,12528
Lake Katrine,6190,NY,https://www.ewg.org/tapwater/system.php?pws=NY5503390,Ulster Water District,12528
Port Ewen,4800,NY,https://www.ewg.org/tapwater/system.php?pws=NY5503382,Port Ewen Water District,12528
Ellenville,4323,NY,https://www.ewg.org/tapwater/system.php?pws=NY5503366,Ellenville (village) Water Dis,12528
Highland,4000,NY,https://www.ewg.org/tapwater/system.php?pws=NY5503368,Highland Water District,12528
Saugerties,3920,NY,https://www.ewg.org/tapwater/system.php?pws=NY5503367,Glasco Water District,12528
Milton,3248,NY,https://www.ewg.org/tapwater/system.php?pws=NY5503377,Marlborough Water District,12528
Napanoch,3000,NY,https://www.ewg.org/tapwater/system.php?pws=NY5503751,Eastern/ulster Correctional Fa,12528
Nashville,59392,TN,https://www.ewg.org/tapwater/system.php?pws=TN0000286,Harpeth Valley Utility District,37214
Madison,69093,TN,https://www.ewg.org/tapwater/system.php?pws=TN0000424,Madison Suburban Utility District,37214
Nashville,702407,TN,https://www.ewg.org/tapwater/system.php?pws=TN0000494,Nashville Water Department #1,37214
,0,WA,https://www.ewg.org/tapwater/system.php?pws=,,98926
,0,WA,https://www.ewg.org/tapwater/system.php?pws=,,98926
,0,WA,https://www.ewg.org/tapwater/system.php?pws=,,98926
Orondo,95,WA,https://www.ewg.org/tapwater/system.php?pws=WA5300863,Auvil Fruit Company Inc.,98926
Ellensburg,110,WA,https://www.ewg.org/tapwater/system.php?pws=WA5312170,Central Mobile Home Park,98926
Cle Elum,1820,WA,https://www.ewg.org/tapwater/system.php?pws=WA5313500,Cle Elum Water Department,98926
Cle Elum,60,WA,https://www.ewg.org/tapwater/system.php?pws=WA5319943,Driftwood Acres Maintenance Corp,98926
Cle Elum,250,WA,https://www.ewg.org/tapwater/system.php?pws=WA5342700,Easton Water District,98926
Ellensburg,18370,WA,https://www.ewg.org/tapwater/system.php?pws=WA5322950,Ellensburg Water Department,98926
Cle Elum,35,WA,https://www.ewg.org/tapwater/system.php?pws=WA5302150,Evergreen Valley Water System,98926
Ellensburg,29,WA,https://www.ewg.org/tapwater/system.php?pws=WA53AB290,Grasslands Park,98926
Ellensburg,260,WA,https://www.ewg.org/tapwater/system.php?pws=WA5329172,Grasslands Water System,98926
Ronald,225,WA,https://www.ewg.org/tapwater/system.php?pws=WA5374100,Kittitas Co. WD #2,98926
Thorp,230,WA,https://www.ewg.org/tapwater/system.php?pws=WA5342447,Kittitas County Water District #4,98926
Cle Elum,600,WA,https://www.ewg.org/tapwater/system.php?pws=WA5342704,Kittitas County Water District #5,98926
Cle Elum,245,WA,https://www.ewg.org/tapwater/system.php?pws=WA5385295,Kittitas County Water District #7,98926
Kittitas,1386,WA,https://www.ewg.org/tapwater/system.php?pws=WA5342650,"Kittitas, City Of",98926
Seattle,245,WA,https://www.ewg.org/tapwater/system.php?pws=WA5354775,Millpond Mobile Manor,98926
Ronald,90,WA,https://www.ewg.org/tapwater/system.php?pws=WA5367640,Pineloch Sun Beach Club,98926
South Cle Elum,33,WA,https://www.ewg.org/tapwater/system.php?pws=WA5308401,Reservoir Hill Maintenance Association,98926
Rosyln,976,WA,https://www.ewg.org/tapwater/system.php?pws=WA5374400,"Roslyn, City Of",98926
Kent,60,WA,https://www.ewg.org/tapwater/system.php?pws=WA5380005,Sky Meadows Ranch Country Club Water,98926
South Cle Elum,535,WA,https://www.ewg.org/tapwater/system.php?pws=WA5381600,South Cle Elum Water Department,98926
Cle Elum,215,WA,https://www.ewg.org/tapwater/system.php?pws=WA5385123,Sun Country Estates 1-2-3,98926
Cle Elum,30,WA,https://www.ewg.org/tapwater/system.php?pws=WA5385128,Sun Island Maintenance Association,98926
Cle Elum,103,WA,https://www.ewg.org/tapwater/system.php?pws=WA53AA317,Suncadia Resort,98926
Cle Elum,36,WA,https://www.ewg.org/tapwater/system.php?pws=WA5386633,Swiftwater Trailer Park,98926
Vantage,73,WA,https://www.ewg.org/tapwater/system.php?pws=WA5391250,Vantage Water System,98926
Yakima,45,WA,https://www.ewg.org/tapwater/system.php?pws=WA5396883,Wildwood 2 and 3,98926
Walterboro,11328,SC,https://www.ewg.org/tapwater/system.php?pws=SC1510004,City of Walterboro,29435
Edisto Beach,5331,SC,https://www.ewg.org/tapwater/system.php?pws=SC1510006,"Edisto Beach, Town of",29435
Walterboro,50,SC,https://www.ewg.org/tapwater/system.php?pws=SC1570924,Faith Cathedral Fellowship Inc.,29435
Edisto Island,98,SC,https://www.ewg.org/tapwater/system.php?pws=SC1550002,Fishing Creek Property Owners Association,29435
Lodge,119,SC,https://www.ewg.org/tapwater/system.php?pws=SC1510001,"Lodge, Town of",29435
Smoaks,187,SC,https://www.ewg.org/tapwater/system.php?pws=SC1510002,"Smoaks, Town of",29435
Branchville,107,SC,https://www.ewg.org/tapwater/system.php?pws=SC1510003,"Williams, Town of",29435
Dover,34500,DE,https://www.ewg.org/tapwater/system.php?pws=DE0000221,Bethany Bay Ocean View,19968
Dover,32700,DE,https://www.ewg.org/tapwater/system.php?pws=DE0000991,Rehoboth District,19968
Rehoboth Beach,30000,DE,https://www.ewg.org/tapwater/system.php?pws=DE0000723,Rehoboth Beach Water Department,19968
Frankford,22400,DE,https://www.ewg.org/tapwater/system.php?pws=DE0000825,Dewey Beach Water Department,19968
Newark,15771,DE,https://www.ewg.org/tapwater/system.php?pws=DE00A0323,South Bethany,19968
Bethany Beach,12450,DE,https://www.ewg.org/tapwater/system.php?pws=DE0000557,Sussex Shores Water Company,19968
Bethany Beach,12000,DE,https://www.ewg.org/tapwater/system.php?pws=DE0000556,Bethany Beach Water Department,19968
Long Neck,11180,DE,https://www.ewg.org/tapwater/system.php?pws=DE0000625,Long Neck Water Company,19968
Dover,10500,DE,https://www.ewg.org/tapwater/system.php?pws=DE0000271,Meadow District,19968
Lewes,9400,DE,https://www.ewg.org/tapwater/system.php?pws=DE0000602,Lewes Board Of Public Works,19968
Egan,363,SD,https://www.ewg.org/tapwater/system.php?pws=SD4600088,Chester Sanitary District,57017
Colman,594,SD,https://www.ewg.org/tapwater/system.php?pws=SD4600093,Colman,57017
Egan,278,SD,https://www.ewg.org/tapwater/system.php?pws=SD4600115,Egan,57017
Flandreau,2341,SD,https://www.ewg.org/tapwater/system.php?pws=SD4600127,Flandreau,57017
Arlington,2738,SD,https://www.ewg.org/tapwater/system.php?pws=SD4600874,Kingbrook III Rural Water System,57017
Madison,6474,SD,https://www.ewg.org/tapwater/system.php?pws=SD4600199,Madison,57017
Nunda,43,SD,https://www.ewg.org/tapwater/system.php?pws=SD4600228,Nunda,57017
Flandreau,104,SD,https://www.ewg.org/tapwater/system.php?pws=SD4602086,Pleasant Valley Colony,57017
Ramona,174,SD,https://www.ewg.org/tapwater/system.php?pws=SD4600252,Ramona,57017
Trent,232,SD,https://www.ewg.org/tapwater/system.php?pws=SD4600333,Trent,57017
Egan,171,SD,https://www.ewg.org/tapwater/system.php?pws=SD4600419,Wentworth,57017
Raleigh,521839,NC,https://www.ewg.org/tapwater/system.php?pws=NC0392010,City of Raleigh,27519
Durham,265472,NC,https://www.ewg.org/tapwater/system.php?pws=NC0332010,City of Durham,27519
Apex,145000,NC,https://www.ewg.org/tapwater/system.php?pws=NC0392020,Cary,27519
Apex,44164,NC,https://www.ewg.org/tapwater/system.php?pws=NC0392045,Town of Apex,27519
Holly Springs,26000,NC,https://www.ewg.org/tapwater/system.php?pws=NC0392050,Town of Holly Springs,27519
Fuquay-varina,21241,NC,https://www.ewg.org/tapwater/system.php?pws=NC0392055,Town of Fuquay-Varina,27519
Raleigh,16500,NC,https://www.ewg.org/tapwater/system.php?pws=NC0392373,Bayleaf Master,27519
Apex,15988,NC,https://www.ewg.org/tapwater/system.php?pws=NC0319126,Chatham Co-North,27519
Siler City,7900,NC,https://www.ewg.org/tapwater/system.php?pws=NC0319010,"Siler City, City of",27519
Pittsboro,4401,NC,https://www.ewg.org/tapwater/system.php?pws=NC0319015,"Pittsboro, Town of",27519
Addyston,900,OH,https://www.ewg.org/tapwater/system.php?pws=OH3100012,Addyston Village Public Water System,45069
Hamilton,109988,OH,https://www.ewg.org/tapwater/system.php?pws=OH0900303,Butler County Water District 2 Public Water System,45069
Cincinnati,500,OH,https://www.ewg.org/tapwater/system.php?pws=OH3139917,Cincinnati Childrens Med Center Col Hill,45069
Cincinnati,749000,OH,https://www.ewg.org/tapwater/system.php?pws=OH3102612,Cincinnati Public Water System,45069
Cleves,4950,OH,https://www.ewg.org/tapwater/system.php?pws=OH3100512,Cleves Village Public Water System,45069
Hamilton,267,OH,https://www.ewg.org/tapwater/system.php?pws=OH0902912,Crouse Mobile Home Park,45069
Cleves,230,OH,https://www.ewg.org/tapwater/system.php?pws=OH3100612,Dry Fork Mobile Home Park,45069
Fairfield,42647,OH,https://www.ewg.org/tapwater/system.php?pws=OH0900715,Fairfield City PWS,45069
Glendale,2500,OH,https://www.ewg.org/tapwater/system.php?pws=OH3100712,Glendale Village Public Water System,45069
Hamilton,62477,OH,https://www.ewg.org/tapwater/system.php?pws=OH0904012,Hamilton Public Water System,45069
Harrison,10000,OH,https://www.ewg.org/tapwater/system.php?pws=OH3100812,Harrison City PWS,45069
Cincinnati,15000,OH,https://www.ewg.org/tapwater/system.php?pws=OH3101112,Indian Hill City PWS,45069
Hamilton,250,OH,https://www.ewg.org/tapwater/system.php?pws=OH0901412,Linda Mobile Home Park Public Water System,45069
Lockland,3449,OH,https://www.ewg.org/tapwater/system.php?pws=OH3101212,Lockland Village Public Water System,45069
Middletown,48694,OH,https://www.ewg.org/tapwater/system.php?pws=OH0901712,Middletown City PWS,45069
Monroe,13061,OH,https://www.ewg.org/tapwater/system.php?pws=OH0902012,Monroe City PWS,45069
New Miami,3200,OH,https://www.ewg.org/tapwater/system.php?pws=OH0902112,New Miami Village Public Water System,45069
Norwood,19997,OH,https://www.ewg.org/tapwater/system.php?pws=OH3101703,Norwood City PWS,45069
Oxford,22500,OH,https://www.ewg.org/tapwater/system.php?pws=OH0902312,Oxford City PWS,45069
Reading,8604,OH,https://www.ewg.org/tapwater/system.php?pws=OH3101812,Reading City Public Water System,45069
Seven Mile,900,OH,https://www.ewg.org/tapwater/system.php?pws=OH0902612,Seven Mile Village Public Water System,45069
Hamilton,41831,OH,https://www.ewg.org/tapwater/system.php?pws=OH0903912,Southwest Regional Water District,45069
Trenton,12000,OH,https://www.ewg.org/tapwater/system.php?pws=OH0903012,Trenton City PWS,45069
Wyoming,9700,OH,https://www.ewg.org/tapwater/system.php?pws=OH3102212,Wyoming City Public Water System,45069
Greensburg,33000,PA,https://www.ewg.org/tapwater/system.php?pws=PA5020025,West Cnty Muni Auth-mckeesport,15112
Greensburg,150000,PA,https://www.ewg.org/tapwater/system.php?pws=PA5650032,Municipal Authority of Westmoreland County - Sweeney Water Treatment Plant,15112
Cortland,44,NY,https://www.ewg.org/tapwater/system.php?pws=NY3321981,Apple Ridge Apartments East,13039
Cortland,75,NY,https://www.ewg.org/tapwater/system.php?pws=NY3322466,Apple Ridge Apartments West,13039
Baldwinsville,9200,NY,https://www.ewg.org/tapwater/system.php?pws=NY3304307,Baldwinsville Village,13039
Lafayette,129,NY,https://www.ewg.org/tapwater/system.php?pws=NY3300985,Butternut Landing Mobile Home Park,13039
Syracuse,152,NY,https://www.ewg.org/tapwater/system.php?pws=NY3304310,Cardiff Tookes Spring,13039
Clay,16000,NY,https://www.ewg.org/tapwater/system.php?pws=NY3304344,Clay WDS,13039
Syracuse,78,NY,https://www.ewg.org/tapwater/system.php?pws=NY3300991,Delphi Falls Park,13039
East Syracuse,13600,NY,https://www.ewg.org/tapwater/system.php?pws=NY3316112,Dewitt WDS - North,13039
East Syracuse,16200,NY,https://www.ewg.org/tapwater/system.php?pws=NY3304343,Dewitt WDS - South,13039
Syracuse,52,NY,https://www.ewg.org/tapwater/system.php?pws=NY3304340,East Side Spring,13039
Elbrige,2919,NY,https://www.ewg.org/tapwater/system.php?pws=NY3304312,Elbridge Village,13039
Syracuse,72,NY,https://www.ewg.org/tapwater/system.php?pws=NY3318538,Festival Garden Apartments,13039
Lafayette,200,NY,https://www.ewg.org/tapwater/system.php?pws=NY3318329,Hidden Hills,13039
Jordan,1400,NY,https://www.ewg.org/tapwater/system.php?pws=NY3304316,Jordan Village,13039
Liverpool,100,NY,https://www.ewg.org/tapwater/system.php?pws=NY3316125,Lords Hill Apartments,13039
Skaneateles,58,NY,https://www.ewg.org/tapwater/system.php?pws=NY3300989,Mobile Manor Mobile Home Park,13039
Syracuse,50,NY,https://www.ewg.org/tapwater/system.php?pws=NY3304337,Ocwa Skyridge Community Water District,13039
Syracuse,565582,NY,https://www.ewg.org/tapwater/system.php?pws=NY3304336,Onondaga County Water Authority (OCWA),13039
Nedrow,450,NY,https://www.ewg.org/tapwater/system.php?pws=NY3315600,Onondaga Nation - Native American,13039
Watertown,200,NY,https://www.ewg.org/tapwater/system.php?pws=NY3300992,Rolling Hills Community LLC,13039
Skaneateles,6110,NY,https://www.ewg.org/tapwater/system.php?pws=NY3304331,Skaneateles Village,13039
Skaneateles,3520,NY,https://www.ewg.org/tapwater/system.php?pws=NY3304347,Skaneateles WDS,13039
Syracuse,512329,NY,https://www.ewg.org/tapwater/system.php?pws=NY3304334,Syracuse City,13039
Tully,930,NY,https://www.ewg.org/tapwater/system.php?pws=NY3304335,Tully Village,13039
Cortland,80,NY,https://www.ewg.org/tapwater/system.php?pws=NY3316126,Willow Wood Apartments,13039
Hale Center,2252,TX,https://www.ewg.org/tapwater/system.php?pws=TX0950002,City of Hale Center,79041
Plainview,34,TX,https://www.ewg.org/tapwater/system.php?pws=TX0950071,Triple J Mobile Home Park,79041
Cotton Center,250,TX,https://www.ewg.org/tapwater/system.php?pws=TX0950014,Cotton Center Water Supply Corporation,79041
Menoken,200,ND,https://www.ewg.org/tapwater/system.php?pws=ND0800648,Apple Valley Co-op,58579
Benedict,66,ND,https://www.ewg.org/tapwater/system.php?pws=ND2800069,"Benedict, City of",58579
Bismarck,72417,ND,https://www.ewg.org/tapwater/system.php?pws=ND0800080,City of Bismarck,58579
Washburn,79,ND,https://www.ewg.org/tapwater/system.php?pws=ND2800194,"Coleharbor, City of",58579
Bismarck,162,ND,https://www.ewg.org/tapwater/system.php?pws=ND0800144,Country Club Co-op,58579
Bismarck,80,ND,https://www.ewg.org/tapwater/system.php?pws=ND0800096,Dakota Adventist Academy,58579
Garrison,1805,ND,https://www.ewg.org/tapwater/system.php?pws=ND2801430,Garrison Rural Water District,58579
Garrison,1453,ND,https://www.ewg.org/tapwater/system.php?pws=ND2800389,"Garrison, City of",58579
Bismarck,345,ND,https://www.ewg.org/tapwater/system.php?pws=ND0800083,Imperial Valley Water Company,58579
Lincoln,3683,ND,https://www.ewg.org/tapwater/system.php?pws=ND0800570,"Lincoln, City of",58579
Max,334,ND,https://www.ewg.org/tapwater/system.php?pws=ND2800619,"Max, City of",58579
Turtle Lake,1025,ND,https://www.ewg.org/tapwater/system.php?pws=ND2801400,Mclean-sheridan Water District-system 1,58579
Turtle Lake,260,ND,https://www.ewg.org/tapwater/system.php?pws=ND2801696,Mclean-sheridan Water District-system 2,58579
Mercer,94,ND,https://www.ewg.org/tapwater/system.php?pws=ND2800650,"Mercer, City of",58579
Minot,425,ND,https://www.ewg.org/tapwater/system.php?pws=ND2801487,North Central Rw Consortium (riverdale),58579
Riverdale,205,ND,https://www.ewg.org/tapwater/system.php?pws=ND2800825,"Riverdale, City of",58579
Bismarck,4455,ND,https://www.ewg.org/tapwater/system.php?pws=ND0801154,South Central Regional Water District,58579
Bismarck,9848,ND,https://www.ewg.org/tapwater/system.php?pws=ND0801502,South Central Regional Water District North Burleigh,58579
Turtle Lake,581,ND,https://www.ewg.org/tapwater/system.php?pws=ND2800949,"Turtle Lake, City of",58579
Underwood,778,ND,https://www.ewg.org/tapwater/system.php?pws=ND2800953,"Underwood, City of",58579
Washburn,1246,ND,https://www.ewg.org/tapwater/system.php?pws=ND2800989,"Washburn, City of",58579
Wilton,711,ND,https://www.ewg.org/tapwater/system.php?pws=ND0801031,"Wilton, City of",58579
Wing,152,ND,https://www.ewg.org/tapwater/system.php?pws=ND0801036,"Wing, City of",58579
Norfolk,234220,VA,https://www.ewg.org/tapwater/system.php?pws=VA3710100,City of Norfolk,23508
Norfolk,48300,VA,https://www.ewg.org/tapwater/system.php?pws=VA3710050,Norfolk Naval Base,23508
Telluride,73,CO,https://www.ewg.org/tapwater/system.php?pws=CO0157011,Aldasoro Ranch Hoc,81430
Redvale,60,CO,https://www.ewg.org/tapwater/system.php?pws=CO0157244,Elk Run Homeowners Corporation,81430
Telluride,165,CO,https://www.ewg.org/tapwater/system.php?pws=CO0157250,Ilium Valley Ws,81430
Telluride,55,CO,https://www.ewg.org/tapwater/system.php?pws=CO0157300,Last Dollar Public Utility District,81430
Redvale,8700,CO,https://www.ewg.org/tapwater/system.php?pws=CO0157400,"Mountain Village, Town of",81430
Norwood,1700,CO,https://www.ewg.org/tapwater/system.php?pws=CO0157500,Norwood Water Commission,81430
Ophir,145,CO,https://www.ewg.org/tapwater/system.php?pws=CO0157600,"Ophir, Town of",81430
Placerville,45,CO,https://www.ewg.org/tapwater/system.php?pws=CO0157700,"Sawpit, Town of",81430
Placerville,25,CO,https://www.ewg.org/tapwater/system.php?pws=CO0157900,Telluride Pines Homeowners Association,81430
Telluride,7900,CO,https://www.ewg.org/tapwater/system.php?pws=CO0157800,"Telluride, Town of",81430
Ridgway,200,CO,https://www.ewg.org/tapwater/system.php?pws=CO0157950,Wilson Mesa,81430
Red Lodge,200,MT,https://www.ewg.org/tapwater/system.php?pws=MT0000063,Bearcreek Municipal Water System,59014
Belfry,205,MT,https://www.ewg.org/tapwater/system.php?pws=MT0000460,Belfry Carbon County Water and Sewer District,59014
Bridger,750,MT,https://www.ewg.org/tapwater/system.php?pws=MT0000165,"Bridger, Town of",59014
Columbus,50,MT,https://www.ewg.org/tapwater/system.php?pws=MT0003670,Cooney Enterprises,59014
Joliet,45,MT,https://www.ewg.org/tapwater/system.php?pws=MT0004466,Evergreen Subdivision,59014
Billings,500,MT,https://www.ewg.org/tapwater/system.php?pws=MT0000222,"Fromberg, Town of",59014
Joliet,600,MT,https://www.ewg.org/tapwater/system.php?pws=MT0000256,"Joliet, Town of",59014
Red Lodge,2000,MT,https://www.ewg.org/tapwater/system.php?pws=MT0000314,Red Lodge Water Department,59014
Laurel,50,MT,https://www.ewg.org/tapwater/system.php?pws=MT0004480,Rio Vista Estates Ho Association Inc.,59014
Roberts,300,MT,https://www.ewg.org/tapwater/system.php?pws=MT0000317,Roberts Wua Carbon County Water and Sewer,59014
Green Bay,104057,WI,https://www.ewg.org/tapwater/system.php?pws=WI4050356,Green Bay Waterworks,54115
Menasha,72000,WI,https://www.ewg.org/tapwater/system.php?pws=WI4450333,Appleton Waterworks,54115
De Pere,23920,WI,https://www.ewg.org/tapwater/system.php?pws=WI4050453,De Pere Water Department,54115
Grand Chute,21583,WI,https://www.ewg.org/tapwater/system.php?pws=WI4450429,Grand Chute Tn San District 1,54115
Green Bay,18900,WI,https://www.ewg.org/tapwater/system.php?pws=WI4050468,Howard Waterworks,54115
Bangor,25855,ME,https://www.ewg.org/tapwater/system.php?pws=ME0090110,Bangor Water District,04444
Brewer,8910,ME,https://www.ewg.org/tapwater/system.php?pws=ME0090220,Brewer Water Department,04444
Old Town,7758,ME,https://www.ewg.org/tapwater/system.php?pws=ME0091200,Old Town Water District,04444
Orono,5318,ME,https://www.ewg.org/tapwater/system.php?pws=ME0091210,Orono-veazie Water District,04444
Hampden,5213,ME,https://www.ewg.org/tapwater/system.php?pws=ME0090660,Hampden Water District,04444
Sylvester,1190,WV,https://www.ewg.org/tapwater/system.php?pws=WV3300315,Boone Raleigh P S D,25181
Seth,60,WV,https://www.ewg.org/tapwater/system.php?pws=WV3300310,Prenter Water Company,25181
Tucson,1180,AZ,https://www.ewg.org/tapwater/system.php?pws=AZ0410127,Spanish Trail Water Company,85747
Vail,11525,AZ,https://www.ewg.org/tapwater/system.php?pws=AZ0410041,Vail Water Company,85747
Dmafb,14775,AZ,https://www.ewg.org/tapwater/system.php?pws=AZ0420549,USAF Davis Monthan AFB,85747
Tucson,3312,AZ,https://www.ewg.org/tapwater/system.php?pws=AZ0410177,Saguaro Water Company,85747
Tucson,160,AZ,https://www.ewg.org/tapwater/system.php?pws=AZ0410179,Tucson Water Thunderhead,85747
Tucson,486,AZ,https://www.ewg.org/tapwater/system.php?pws=AZ0420197,Cactus Country Trailer Haven,85747
Vail,75,AZ,https://www.ewg.org/tapwater/system.php?pws=AZ0410199,Rincon Mesa Landowners,85747
Elkins,2815,AR,https://www.ewg.org/tapwater/system.php?pws=AR0000567,Elkins Waterworks,72703
Fayetteville,91427,AR,https://www.ewg.org/tapwater/system.php?pws=AR0000569,Fayetteville Waterworks,72703
Huntsville,2402,AR,https://www.ewg.org/tapwater/system.php?pws=AR0000348,Huntsville Waterworks,72703
Lincoln,6209,AR,https://www.ewg.org/tapwater/system.php?pws=AR0000572,Lincoln Waterworks,72703
Rogers,16412,AR,https://www.ewg.org/tapwater/system.php?pws=AR0000803,Madison County Regional Water,72703
Huntsville,9318,AR,https://www.ewg.org/tapwater/system.php?pws=AR0000349,Madison County Water Facilities Board,72703
Elkins,5400,AR,https://www.ewg.org/tapwater/system.php?pws=AR0000668,Mount Olive Water Association,72703
Prairie Grove,5419,AR,https://www.ewg.org/tapwater/system.php?pws=AR0000573,Prairie Grove Waterworks,72703
Springdale,81429,AR,https://www.ewg.org/tapwater/system.php?pws=AR0000575,Springdale Water Utilities,72703
Tontitown,2270,AR,https://www.ewg.org/tapwater/system.php?pws=AR0000566,Tontitown Waterworks,72703
Farmington,15734,AR,https://www.ewg.org/tapwater/system.php?pws=AR0000574,Washington Water Authority WWA,72703
West Fork,162,AR,https://www.ewg.org/tapwater/system.php?pws=AR0000577,West Fork Waterworks,72703
Winslow,1590,AR,https://www.ewg.org/tapwater/system.php?pws=AR0000332,Winslow Waterworks,72703
,0,CA,https://www.ewg.org/tapwater/system.php?pws=,,93651
,0,CA,https://www.ewg.org/tapwater/system.php?pws=,,93651
,0,CA,https://www.ewg.org/tapwater/system.php?pws=,,93651
,0,CA,https://www.ewg.org/tapwater/system.php?pws=,,93651
Linden,4446,TX,https://www.ewg.org/tapwater/system.php?pws=TX0340066,Western Cass Water Supply Corporation,75630
Avinger,729,TX,https://www.ewg.org/tapwater/system.php?pws=TX0340002,City of Avinger,75630
Austin,651,TX,https://www.ewg.org/tapwater/system.php?pws=TX1580016,Crestwood Water Company,75630
Pflugerville,291,TX,https://www.ewg.org/tapwater/system.php?pws=TX1580063,Indian Hills Harbor,75630
Hughes Springs,2706,TX,https://www.ewg.org/tapwater/system.php?pws=TX0340003,City of Hughes Springs,75630
Bend,62791,OR,https://www.ewg.org/tapwater/system.php?pws=OR4100100,Bend Water Department,97701
Redmond,27427,OR,https://www.ewg.org/tapwater/system.php?pws=OR4100693,Redmond Water Department,97701
Bend,25528,OR,https://www.ewg.org/tapwater/system.php?pws=OR4100091,Avion Water Company - Avion,97701
Prineville,9245,OR,https://www.ewg.org/tapwater/system.php?pws=OR4100682,"Prineville, City of",97701
Bend,3150,OR,https://www.ewg.org/tapwater/system.php?pws=OR4100113,Roats Water System,97701
Bend,2925,OR,https://www.ewg.org/tapwater/system.php?pws=OR4101439,Agate Water System,97701
Sunriver,2500,OR,https://www.ewg.org/tapwater/system.php?pws=OR4100846,Sunriver Water LLC/sunriver Utilities,97701
Sisters,2038,OR,https://www.ewg.org/tapwater/system.php?pws=OR4100826,"Sisters, City of",97701
Lapine,1600,OR,https://www.ewg.org/tapwater/system.php?pws=OR4101496,"La Pine, City of",97701
Bend,1600,OR,https://www.ewg.org/tapwater/system.php?pws=OR4101181,Water Wonderland Improvement District 2,97701
Allgood,728,AL,https://www.ewg.org/tapwater/system.php?pws=AL0000098,"Allgood Water Works, Town of",35079
Bessemer,81759,AL,https://www.ewg.org/tapwater/system.php?pws=AL0000737,Bessemer Water Service,35079
Birmingham,591243,AL,https://www.ewg.org/tapwater/system.php?pws=AL0000738,Birmingham Water Works Board,35079
Cleveland,17139,AL,https://www.ewg.org/tapwater/system.php?pws=AL0001783,Blount County Water,35079
Hanceville,4266,AL,https://www.ewg.org/tapwater/system.php?pws=AL0000100,Blountsville Utilities Board,35079
Brookside,2550,AL,https://www.ewg.org/tapwater/system.php?pws=AL0000741,Brookside Water Works,35079
Cleveland,3384,AL,https://www.ewg.org/tapwater/system.php?pws=AL0000101,Cleveland Water Works,35079
Bessemer,32,AL,https://www.ewg.org/tapwater/system.php?pws=AL0001782,Governmental Utility Service Corporation,35079
Graysville,9408,AL,https://www.ewg.org/tapwater/system.php?pws=AL0000748,Graysville Water and Sewer Board,35079
Hayden,2418,AL,https://www.ewg.org/tapwater/system.php?pws=AL0000102,Hayden Water Works,35079
Irondale,8492,AL,https://www.ewg.org/tapwater/system.php?pws=AL0000751,Irondale Water System,35079
Leeds,17355,AL,https://www.ewg.org/tapwater/system.php?pws=AL0000753,Leeds Water Board,35079
Mulga,6732,AL,https://www.ewg.org/tapwater/system.php?pws=AL0000755,Mulga Water Works and Gas Department,35079
Cleveland,2952,AL,https://www.ewg.org/tapwater/system.php?pws=AL0000122,Nectar Water System,35079
Oneonta,19200,AL,https://www.ewg.org/tapwater/system.php?pws=AL0000103,Oneonta Utilities Board,35079
Locust Fork,6099,AL,https://www.ewg.org/tapwater/system.php?pws=AL0000104,Pine Bluff Water Authority,35079
Remlap,2406,AL,https://www.ewg.org/tapwater/system.php?pws=AL0001672,Remlap-Pine Mountain Water Authority,35079
Snead,5262,AL,https://www.ewg.org/tapwater/system.php?pws=AL0000108,Snead Water Works,35079
Trussville,24351,AL,https://www.ewg.org/tapwater/system.php?pws=AL0000761,Trussville Utilities,35079
Mccalla,35724,AL,https://www.ewg.org/tapwater/system.php?pws=AL0000763,Warrior River Water Authority,35079
Quinton,3177,AL,https://www.ewg.org/tapwater/system.php?pws=AL0000765,"West Jefferson Water Works, Town of",35079
Alcoa,30123,TN,https://www.ewg.org/tapwater/system.php?pws=TN0000007,Alcoa Water System,37882
Louisville,88,TN,https://www.ewg.org/tapwater/system.php?pws=TN0000974,Allendale Mobile Home Park,37882
Rockford,85,TN,https://www.ewg.org/tapwater/system.php?pws=TN0000805,Bays Mountain Mobile Home Park,37882
Walland,75,TN,https://www.ewg.org/tapwater/system.php?pws=TN0008285,Blackberry Mountain L.l.c.,37882
Louisville,115,TN,https://www.ewg.org/tapwater/system.php?pws=TN0008003,Country Acres Farm,37882
Friendsville,5570,TN,https://www.ewg.org/tapwater/system.php?pws=TN0000249,Friendsville Water Works,37882
Maryville,47588,TN,https://www.ewg.org/tapwater/system.php?pws=TN0000438,Maryville Department of Wat Qual Con,37882
Maryville,42413,TN,https://www.ewg.org/tapwater/system.php?pws=TN0000643,South Blount Utility District,37882
Townsend,12390,TN,https://www.ewg.org/tapwater/system.php?pws=TN0000714,Tuckaleechee Utility District,37882
Pendleton,17055,OR,https://www.ewg.org/tapwater/system.php?pws=OR4100613,City of Pendleton,97813
Hermiston,16939,OR,https://www.ewg.org/tapwater/system.php?pws=OR4100372,City of Hermiston,97813
Milton-freewater,7050,OR,https://www.ewg.org/tapwater/system.php?pws=OR4100522,"Milton-freewater, City Of",97813
Umatilla,6980,OR,https://www.ewg.org/tapwater/system.php?pws=OR4100914,"Umatilla, City of",97813
Stanfield,2115,OR,https://www.ewg.org/tapwater/system.php?pws=OR4100842,"Stanfield, City of",97813
Columbus,1159817,OH,https://www.ewg.org/tapwater/system.php?pws=OH2504412,Columbus Public Water System,43068
Newark,47573,OH,https://www.ewg.org/tapwater/system.php?pws=OH4502314,Newark City PWS,43068
Lancaster,40400,OH,https://www.ewg.org/tapwater/system.php?pws=OH2301012,Lancaster City PWS,43068
Westerville,38000,OH,https://www.ewg.org/tapwater/system.php?pws=OH2503411,Westerville City PWS,43068
Reynoldsburg,35893,OH,https://www.ewg.org/tapwater/system.php?pws=OH2503203,Reynoldsburg City PWS,43068
Gahanna,33323,OH,https://www.ewg.org/tapwater/system.php?pws=OH2501303,Gahanna City PWS,43068
Pickerington,19316,OH,https://www.ewg.org/tapwater/system.php?pws=OH2301512,Pickerington City PWS,43068
Bexley,13650,OH,https://www.ewg.org/tapwater/system.php?pws=OH2500103,Bexley City PWS,43068
Carroll,12882,OH,https://www.ewg.org/tapwater/system.php?pws=OH2301912,Fairfield County Utilities PWS,43068
Etna,12088,OH,https://www.ewg.org/tapwater/system.php?pws=OH4505412,Southwest Licking Community Water,43068
Buffalo,532221,NY,https://www.ewg.org/tapwater/system.php?pws=NY1400443,Erie County Water Authority (ECWA),14227
Buffalo,276000,NY,https://www.ewg.org/tapwater/system.php?pws=NY1400422,Buffalo Water Authority,14227
Buffalo,80228,NY,https://www.ewg.org/tapwater/system.php?pws=NY1400399,Erie County Waterr Authority - Amherst,14227
Tonawanda,78423,NY,https://www.ewg.org/tapwater/system.php?pws=NY1404556,Town of Tonawanda Water Department,14227
Buffalo,41538,NY,https://www.ewg.org/tapwater/system.php?pws=NY1400515,Ecwa Hamburg,14227
New Ipswich,32,NH,https://www.ewg.org/tapwater/system.php?pws=NH0823010,20 Jaffrey Rd.,03467
Bedford,100,NH,https://www.ewg.org/tapwater/system.php?pws=NH2302010,Ashuelot River Apartments,03467
Milford,43,NH,https://www.ewg.org/tapwater/system.php?pws=NH1992050,Carriage Apartments,03467
Keene,380,NH,https://www.ewg.org/tapwater/system.php?pws=NH2494010,Cheshire County Complex,03467
Swanzey,113,NH,https://www.ewg.org/tapwater/system.php?pws=NH2302040,Eastfield Crossing,03467
Fitzwilliam,65,NH,https://www.ewg.org/tapwater/system.php?pws=NH0821020,Fitzwilliam Village/laughner,03467
Fitzwilliam,53,NH,https://www.ewg.org/tapwater/system.php?pws=NH0821030,Fitzwilliam Village/massin,03467
Fitzwilliam,43,NH,https://www.ewg.org/tapwater/system.php?pws=NH0821010,Fitzwilliam Village/prigge,03467
Keene,70,NH,https://www.ewg.org/tapwater/system.php?pws=NH2302050,Forest View Estates,03467
Rindge,50,NH,https://www.ewg.org/tapwater/system.php?pws=NH1992040,Hampshire Court Water,03467
Keene,40,NH,https://www.ewg.org/tapwater/system.php?pws=NH1992020,Hasbrouck Apartments,03467
Hinsdale,1600,NH,https://www.ewg.org/tapwater/system.php?pws=NH1151020,Hinsdale Water Dept/downtown,03467
Jaffrey,3612,NH,https://www.ewg.org/tapwater/system.php?pws=NH1221010,Jaffrey Water Works,03467
Keene,25000,NH,https://www.ewg.org/tapwater/system.php?pws=NH1241010,Keene Water Department,03467
Marlborough,100,NH,https://www.ewg.org/tapwater/system.php?pws=NH1482010,Marlborough Estates,03467
Marlborough,750,NH,https://www.ewg.org/tapwater/system.php?pws=NH1481010,Marlborough Water Works,03467
Rindge,190,NH,https://www.ewg.org/tapwater/system.php?pws=NH1993010,Monadnock Tenants,03467
N Swanzey,1250,NH,https://www.ewg.org/tapwater/system.php?pws=NH2301010,N Swanzey Water and Fire Prct,03467
Hinsdale,1800,NH,https://www.ewg.org/tapwater/system.php?pws=NH1151010,North Hinsdale Water Department,03467
Bedford,24,NH,https://www.ewg.org/tapwater/system.php?pws=NH0052010,Papermill Village,03467
Keene,40,NH,https://www.ewg.org/tapwater/system.php?pws=NH1992070,Payson Village,03467
Keene,305,NH,https://www.ewg.org/tapwater/system.php?pws=NH2303010,Pine Grove Mobile Home Park,03467
Winchester,158,NH,https://www.ewg.org/tapwater/system.php?pws=NH2533010,South Parrish,03467
Surry,50,NH,https://www.ewg.org/tapwater/system.php?pws=NH2281010,Surry Village Water,03467
Troy,1200,NH,https://www.ewg.org/tapwater/system.php?pws=NH2361010,Troy Water Works,03467
Swanzey,248,NH,https://www.ewg.org/tapwater/system.php?pws=NH2303020,View Point Co-op,03467
Walpole,975,NH,https://www.ewg.org/tapwater/system.php?pws=NH2401010,Walpole Water Department,03467
Keene,43,NH,https://www.ewg.org/tapwater/system.php?pws=NH0053010,Well Hill,03467
West Swanzey,203,NH,https://www.ewg.org/tapwater/system.php?pws=NH2301020,West Swanzey Water,03467
Winchester,2800,NH,https://www.ewg.org/tapwater/system.php?pws=NH2531010,Winchester Water Department,03467
Corte Madera,195362,CA,https://www.ewg.org/tapwater/system.php?pws=CA2110002,Marin Municipal Water District,94949
Corte Madera,195362,CA,https://www.ewg.org/tapwater/system.php?pws=CA2110002,Marin Municipal Water District,94949
Novato,61500,CA,https://www.ewg.org/tapwater/system.php?pws=CA2110003,North Marin Water District,94949
Eau Claire,66060,WI,https://www.ewg.org/tapwater/system.php?pws=WI6180230,Eau Claire Waterworks,54755
Menomonie,15950,WI,https://www.ewg.org/tapwater/system.php?pws=WI6170268,Menomonie Waterworks,54755
Altoona,7345,WI,https://www.ewg.org/tapwater/system.php?pws=WI6180280,Altoona Waterworks,54755
Arcadia,2900,WI,https://www.ewg.org/tapwater/system.php?pws=WI6620319,Arcadia Waterworks,54755
Mondovi,2667,WI,https://www.ewg.org/tapwater/system.php?pws=WI6060193,Mondovi Waterworks,54755
Durand,1968,WI,https://www.ewg.org/tapwater/system.php?pws=WI6470107,Durand Waterworks,54755
Whitehall,1820,WI,https://www.ewg.org/tapwater/system.php?pws=WI6620275,Whitehall Waterworks,54755
Osseo,1701,WI,https://www.ewg.org/tapwater/system.php?pws=WI6620328,Osseo Waterworks,54755
Trempealeau,1616,WI,https://www.ewg.org/tapwater/system.php?pws=WI6620332,Trempealeau Waterworks,54755
Galesville,1496,WI,https://www.ewg.org/tapwater/system.php?pws=WI6620271,Galesville Waterworks,54755
Blanca,471,CO,https://www.ewg.org/tapwater/system.php?pws=CO0112100,"Blanca, Town of",81152
San Luis,561,CO,https://www.ewg.org/tapwater/system.php?pws=CO0112300,Costilla County Ws,81152
Ft Garland,284,CO,https://www.ewg.org/tapwater/system.php?pws=CO0112500,Ft. Garland Water & Sanitation District,81152
San Luis,100,CO,https://www.ewg.org/tapwater/system.php?pws=CO0112700,Garcia Domestic Wua,81152
San Luis,40,CO,https://www.ewg.org/tapwater/system.php?pws=CO0112850,San Acacio Domestic Wa,81152
San Luis,629,CO,https://www.ewg.org/tapwater/system.php?pws=CO0112900,San Luis Water & Sanitation District,81152
San Luis,45,CO,https://www.ewg.org/tapwater/system.php?pws=CO0112810,Viejo San Acacio,81152
Raymond,400,WA,https://www.ewg.org/tapwater/system.php?pws=WA5304815,Bay Center,98638
Chinook,768,WA,https://www.ewg.org/tapwater/system.php?pws=WA5312800,Chinook Water District,98638
Grayland,49,WA,https://www.ewg.org/tapwater/system.php?pws=WA5319175,Dexter By The Sea,98638
Grayland,37,WA,https://www.ewg.org/tapwater/system.php?pws=WA5332114,Heather Water Works,98638
Ilwaco,1262,WA,https://www.ewg.org/tapwater/system.php?pws=WA5335500,"Ilwaco Water Department, City Of",98638
Raymond,167,WA,https://www.ewg.org/tapwater/system.php?pws=WA53AA361,Lebam,98638
Long Beach,3854,WA,https://www.ewg.org/tapwater/system.php?pws=WA5348000,Long Beach Water Department,98638
Naselle,1473,WA,https://www.ewg.org/tapwater/system.php?pws=WA5358350,Naselle,98638
Ocean Park,4010,WA,https://www.ewg.org/tapwater/system.php?pws=WA5363000,North Beach Water,98638
Oysterville,70,WA,https://www.ewg.org/tapwater/system.php?pws=WA5329240,Oysterville,98638
Raymond,2970,WA,https://www.ewg.org/tapwater/system.php?pws=WA5371500,Raymond Water Department,98638
South Bend,1630,WA,https://www.ewg.org/tapwater/system.php?pws=WA5381500,South Bend Water Department,98638
Chinook,32,WA,https://www.ewg.org/tapwater/system.php?pws=WA5352075,Sundown Water Resources,98638
Ocean Park,1405,WA,https://www.ewg.org/tapwater/system.php?pws=WA5386470,Surfside Homeowners,98638
Issaquah,30,WA,https://www.ewg.org/tapwater/system.php?pws=WA5391935,Vista Dunes,98638
Raymond,2000,WA,https://www.ewg.org/tapwater/system.php?pws=WA5397100,Willapa Valley Water District,98638
Raymond,42,WA,https://www.ewg.org/tapwater/system.php?pws=WA5304582,Wilson Point,98638
Cobden,36,MN,https://www.ewg.org/tapwater/system.php?pws=MN1080010,Cobden,56073
Comfrey,375,MN,https://www.ewg.org/tapwater/system.php?pws=MN1080001,Comfrey,56073
Courtland,611,MN,https://www.ewg.org/tapwater/system.php?pws=MN1520001,Courtland,56073
Evan,86,MN,https://www.ewg.org/tapwater/system.php?pws=MN1080009,Evan,56073
Hanska,393,MN,https://www.ewg.org/tapwater/system.php?pws=MN1080002,Hanska,56073
Klossner,54,MN,https://www.ewg.org/tapwater/system.php?pws=MN1520007,Klossner Water Association,56073
Lafayette,504,MN,https://www.ewg.org/tapwater/system.php?pws=MN1520002,Lafayette,56073
New Ulm,13522,MN,https://www.ewg.org/tapwater/system.php?pws=MN1080003,New Ulm,56073
Nicollet,1111,MN,https://www.ewg.org/tapwater/system.php?pws=MN1520004,Nicollet,56073
North Mankato,13462,MN,https://www.ewg.org/tapwater/system.php?pws=MN1520005,North Mankato,56073
St. Peter,11758,MN,https://www.ewg.org/tapwater/system.php?pws=MN1520006,Saint Peter,56073
New Ulm,90,MN,https://www.ewg.org/tapwater/system.php?pws=MN1080004,Skyview Mobile Villa,56073
Sleepy Eye,3599,MN,https://www.ewg.org/tapwater/system.php?pws=MN1080005,Sleepy Eye,56073
Springfield,2129,MN,https://www.ewg.org/tapwater/system.php?pws=MN1080008,Springfield,56073
Aldie,70,VA,https://www.ewg.org/tapwater/system.php?pws=VA6107010,Aldie Water Company,20132
Ashburn,329,VA,https://www.ewg.org/tapwater/system.php?pws=VA6107037,Beacon Hill-lcsa,20132
Ashburn,49,VA,https://www.ewg.org/tapwater/system.php?pws=VA6107070,Creighton Farms,20132
Ashburn,1061,VA,https://www.ewg.org/tapwater/system.php?pws=VA6107555,Elysian Heights,20132
Middleburg,300,VA,https://www.ewg.org/tapwater/system.php?pws=VA6107100,Foxcroft School,20132
Hamilton,2240,VA,https://www.ewg.org/tapwater/system.php?pws=VA6107150,"Hamilton, Town of",20132
Hillsboro,88,VA,https://www.ewg.org/tapwater/system.php?pws=VA6107200,"Hillsboro, Town of",20132
Leesburg,61540,VA,https://www.ewg.org/tapwater/system.php?pws=VA6107300,Leesburg,20132
Ashburn,286202,VA,https://www.ewg.org/tapwater/system.php?pws=VA6107350,Loudoun Water - Central System,20132
Lovettsville,1798,VA,https://www.ewg.org/tapwater/system.php?pws=VA6107400,"Lovettsville, Town of",20132
Mount Jackson,803,VA,https://www.ewg.org/tapwater/system.php?pws=VA6107450,"Middleburg, Town of",20132
Leesburg,225,VA,https://www.ewg.org/tapwater/system.php?pws=VA6107725,North Spring Behavioral Healthcare,20132
Mount Jackson,60,VA,https://www.ewg.org/tapwater/system.php?pws=VA6107420,One Stop Trailer Park,20132
Purcellville,8606,VA,https://www.ewg.org/tapwater/system.php?pws=VA6107600,"Purcellville, Town of",20132
Ashburn,284,VA,https://www.ewg.org/tapwater/system.php?pws=VA6107651,Reserve At Rokeby Farm,20132
Round Hill,3495,VA,https://www.ewg.org/tapwater/system.php?pws=VA6107650,"Round Hill, Town of",20132
Ashburn,1509,VA,https://www.ewg.org/tapwater/system.php?pws=VA6107660,Selma Estates,20132
Colorado Springs,418096,CO,https://www.ewg.org/tapwater/system.php?pws=CO0121150,Colorado Springs Utilities,80906
Fort Carson,42000,CO,https://www.ewg.org/tapwater/system.php?pws=CO0221445,Fort Carson Army Base,80906
Fountain,21000,CO,https://www.ewg.org/tapwater/system.php?pws=CO0121275,City of Fountain,80906
Colorado Springs,20600,CO,https://www.ewg.org/tapwater/system.php?pws=CO0121125,Cherokee MD,80906
Colorado Springs,19000,CO,https://www.ewg.org/tapwater/system.php?pws=CO0121775,Security Waster District,80906
Colorado Springs,19000,CO,https://www.ewg.org/tapwater/system.php?pws=CO0121900,Widefield WSD,80906
Usaf Academy,16876,CO,https://www.ewg.org/tapwater/system.php?pws=CO0121845,US Air Force Academy,80906
Monument,8741,CO,https://www.ewg.org/tapwater/system.php?pws=CO0121950,Woodmoor Water & Sanitation District,80906
Falcon,8474,CO,https://www.ewg.org/tapwater/system.php?pws=CO0121930,Woodmen Hills Md,80906
Colorado Springs,6600,CO,https://www.ewg.org/tapwater/system.php?pws=CO0121175,Donala Water & Sanitation District,80906
Andover,103,IA,https://www.ewg.org/tapwater/system.php?pws=IA2307001,Andover Water Supply,52037
Maquoketa,434,IA,https://www.ewg.org/tapwater/system.php?pws=IA4903050,Andrew Water Supply,52037
Maquoketa,109,IA,https://www.ewg.org/tapwater/system.php?pws=IA4907084,Baldwin Water Supply,52037
Bellevue,2191,IA,https://www.ewg.org/tapwater/system.php?pws=IA4910000,Bellevue Municipal Utilities,52037
Leclaire,41,IA,https://www.ewg.org/tapwater/system.php?pws=IA2330301,Brookhill Estates,52037
Calamus,439,IA,https://www.ewg.org/tapwater/system.php?pws=IA2320062,Calamus Water Supply,52037
Camanche,4548,IA,https://www.ewg.org/tapwater/system.php?pws=IA2322066,Camanche Water Supply,52037
Le Claire,25,IA,https://www.ewg.org/tapwater/system.php?pws=IA2330303,Cardinal Valley Estates 3rd Addition,52037
Preston,394,IA,https://www.ewg.org/tapwater/system.php?pws=IA2324016,Charlotte Water Works,52037
Dewitt,5322,IA,https://www.ewg.org/tapwater/system.php?pws=IA2330036,De Witt Water Supply,52037
Delmar,525,IA,https://www.ewg.org/tapwater/system.php?pws=IA2328024,Delmar Water Supply,52037
Goose Lake,240,IA,https://www.ewg.org/tapwater/system.php?pws=IA2339094,Goose Lake Muni Water System,52037
Grand Mound,642,IA,https://www.ewg.org/tapwater/system.php?pws=IA2341099,Grand Mound Water Supply,52037
Clinton,26885,IA,https://www.ewg.org/tapwater/system.php?pws=IA2326048,Iowa-American Water Co-Clinton District,52037
Lamotte,260,IA,https://www.ewg.org/tapwater/system.php?pws=IA4945052,La Motte Water Supply,52037
Lost Nation,454,IA,https://www.ewg.org/tapwater/system.php?pws=IA2346047,Lost Nation Water Supply,52037
Low Moor,288,IA,https://www.ewg.org/tapwater/system.php?pws=IA2348002,Low Moor Water Works,52037
Maquoketa,6141,IA,https://www.ewg.org/tapwater/system.php?pws=IA4950029,Maquoketa Municipal Water,52037
Miles,445,IA,https://www.ewg.org/tapwater/system.php?pws=IA4953078,Miles Water Department,52037
Monmouth,153,IA,https://www.ewg.org/tapwater/system.php?pws=IA4955001,Monmouth Water Supply,52037
Preston,1012,IA,https://www.ewg.org/tapwater/system.php?pws=IA4965057,Preston Muni Water Supply,52037
Bellevue,55,IA,https://www.ewg.org/tapwater/system.php?pws=IA4910301,River Point Ridge Homeowners Assoc Inc.,52037
Davenport,300,IA,https://www.ewg.org/tapwater/system.php?pws=IA2300638,Royal Pines Village,52037
Sabula,576,IA,https://www.ewg.org/tapwater/system.php?pws=IA4975014,Sabula Water Supply,52037
Springbrook,144,IA,https://www.ewg.org/tapwater/system.php?pws=IA4984086,Springbrook Water Department,52037
Calamus,165,IA,https://www.ewg.org/tapwater/system.php?pws=IA2391001,Welton Water Supply,52037
Wheatland,764,IA,https://www.ewg.org/tapwater/system.php?pws=IA2394017,Wheatland City Water Supply,52037
Dewitt,150,IA,https://www.ewg.org/tapwater/system.php?pws=IA2300607,Winding Brook Mobile Home Park,52037
Bryn Mawr,747460,PA,https://www.ewg.org/tapwater/system.php?pws=PA1460073,Aqua Pennsylvania Main System,19131
East Lansing,1,MI,https://www.ewg.org/tapwater/system.php?pws=MI0001995,East Lansing Meridian Water Authority,48808
Laramie,70,WY,https://www.ewg.org/tapwater/system.php?pws=WY5601457,Antelope Ridge H.o.a.,82083
Baggs,435,WY,https://www.ewg.org/tapwater/system.php?pws=WY5600058,"Baggs, Town Of",82083
Laramie,100,WY,https://www.ewg.org/tapwater/system.php?pws=WY5601232,Centennial Water and Sewer,82083
Laramie,28000,WY,https://www.ewg.org/tapwater/system.php?pws=WY5600029,City of Laramie,82083
Laramie,375,WY,https://www.ewg.org/tapwater/system.php?pws=WY5600162,Country Meadow Estates,82083
Baggs,92,WY,https://www.ewg.org/tapwater/system.php?pws=WY5600059,"Dixon, Town Of",82083
Elk Mountain,191,WY,https://www.ewg.org/tapwater/system.php?pws=WY5600065,"Elk Mountain, Town Of",82083
Encampment,450,WY,https://www.ewg.org/tapwater/system.php?pws=WY5600060,"Encampment, Town Of",82083
Hanna,841,WY,https://www.ewg.org/tapwater/system.php?pws=WY5600025,"Hanna, Town Of",82083
Medicine Bow,282,WY,https://www.ewg.org/tapwater/system.php?pws=WY5600034,"Medicine Bow, Town Of",82083
Laramie,201,WY,https://www.ewg.org/tapwater/system.php?pws=WY5601533,Nine-mile Water & Sewer District,82083
Rawlins,9749,WY,https://www.ewg.org/tapwater/system.php?pws=WY5600045,"Rawlins Water Supply, City Of",82083
Rock River,245,WY,https://www.ewg.org/tapwater/system.php?pws=WY5600048,"Rock River, Town Of",82083
Saratoga,1760,WY,https://www.ewg.org/tapwater/system.php?pws=WY5600061,"Saratoga, Town Of",82083
Laramie,90,WY,https://www.ewg.org/tapwater/system.php?pws=WY5601004,Seven Mile Water & Sewer District,82083
Encampment,180,WY,https://www.ewg.org/tapwater/system.php?pws=WY5601332,Sierra Madre Jpb,82083
Sinclair,433,WY,https://www.ewg.org/tapwater/system.php?pws=WY5600054,"Sinclair, Town Of",82083
Laramie,492,WY,https://www.ewg.org/tapwater/system.php?pws=WY5601393,South Laramie W&s District,82083
Laramie,485,WY,https://www.ewg.org/tapwater/system.php?pws=WY5601289,Sunny Meadows Village,82083
Laramie,775,WY,https://www.ewg.org/tapwater/system.php?pws=WY5600208,Wyoming Technical Institute,82083
Concord,44000,NH,https://www.ewg.org/tapwater/system.php?pws=NH0501010,Concord Water Department,03263
Franklin,7000,NH,https://www.ewg.org/tapwater/system.php?pws=NH0851010,Franklin Water Works,03263
Pembroke,5200,NH,https://www.ewg.org/tapwater/system.php?pws=NH1861010,Pembroke Water Works,03263
Merrimack,3700,NH,https://www.ewg.org/tapwater/system.php?pws=NH0251010,Penacook Boscawen Water Pct,03263
Hooksett,3500,NH,https://www.ewg.org/tapwater/system.php?pws=NH1181010,Central Hooksett Water Pct,03263
New London,2750,NH,https://www.ewg.org/tapwater/system.php?pws=NH1721010,New London Springfield Water,03263
Hooksett,2730,NH,https://www.ewg.org/tapwater/system.php?pws=NH1181020,Hooksett Village Water Pct,03263
Henniker,2500,NH,https://www.ewg.org/tapwater/system.php?pws=NH1121010,Cogswell Springs Water Works,03263
Tilton,2500,NH,https://www.ewg.org/tapwater/system.php?pws=NH2351010,Tilton Northfield Water District,03263
Contoocook,1600,NH,https://www.ewg.org/tapwater/system.php?pws=NH1191010,Contoocook Village Pct,03263
Gordon,25,WI,https://www.ewg.org/tapwater/system.php?pws=WI8160142,Gordon Correctional Center,54854
Superior,95,WI,https://www.ewg.org/tapwater/system.php?pws=WI8160145,Manitou Falls Sanitary District No 1,54854
South Range,200,WI,https://www.ewg.org/tapwater/system.php?pws=WI8160143,Middle River Health & Rehab Center Inc.,54854
Superior,120,WI,https://www.ewg.org/tapwater/system.php?pws=WI8160146,Oliver Waterworks,54854
Superior,29571,WI,https://www.ewg.org/tapwater/system.php?pws=WI8160147,Superior Water Light & Power Company,54854
Clay Center,4177,KS,https://www.ewg.org/tapwater/system.php?pws=KS2002701,"Clay Center, City of",67432
Clifton,98,KS,https://www.ewg.org/tapwater/system.php?pws=KS2002704,Clay County Rural Water District 1,67432
Longford,950,KS,https://www.ewg.org/tapwater/system.php?pws=KS2002710,Clay County Rural Water District 2,67432
Green,128,KS,https://www.ewg.org/tapwater/system.php?pws=KS2002703,"Green, City of",67432
Clay Center,51,KS,https://www.ewg.org/tapwater/system.php?pws=KS2002702,Hawks Landing,67432
Longford,77,KS,https://www.ewg.org/tapwater/system.php?pws=KS2002706,"Longford, City of",67432
Morganville,187,KS,https://www.ewg.org/tapwater/system.php?pws=KS2002705,"Morganville, City of",67432
Wakefield,967,KS,https://www.ewg.org/tapwater/system.php?pws=KS2002708,"Wakefield, City of",67432
Palmdale,114260,CA,https://www.ewg.org/tapwater/system.php?pws=CA1910045,Antelope Valley - East Kern Water Agency,93252
Santa Paula,0,CA,https://www.ewg.org/tapwater/system.php?pws=CA5610046,United Water Cons District,93252
Loganton,475,PA,https://www.ewg.org/tapwater/system.php?pws=PA4180052,Loganton Borough Water System,17747
Loganton,115,PA,https://www.ewg.org/tapwater/system.php?pws=PA4180051,Greenburr Water Association,17747
Loganton,87,PA,https://www.ewg.org/tapwater/system.php?pws=PA4180066,Booneville Mutual Water Association,17747
Milton,1600,PA,https://www.ewg.org/tapwater/system.php?pws=PA4140081,Paw Nittany,17747
Loganton,75,PA,https://www.ewg.org/tapwater/system.php?pws=PA4180050,Eastville Water Association,17747
Mill Hall,425,PA,https://www.ewg.org/tapwater/system.php?pws=PA4180055,Porter Township Municipal Authority,17747
Bayonne,63000,NJ,https://www.ewg.org/tapwater/system.php?pws=NJ0901001,Bayonne Municipal Utilities Authority,07305
Brainerd,13590,MN,https://www.ewg.org/tapwater/system.php?pws=MN1180002,Brainerd,56435
Baxter,7610,MN,https://www.ewg.org/tapwater/system.php?pws=MN1180027,Baxter,56435
Crosby,2386,MN,https://www.ewg.org/tapwater/system.php?pws=MN1180008,Crosby,56435
Pequot Lakes,1200,MN,https://www.ewg.org/tapwater/system.php?pws=MN1180019,Pequot Lakes,56435
Pine River,944,MN,https://www.ewg.org/tapwater/system.php?pws=MN1110019,Pine River,56435
Bairoil,106,WY,https://www.ewg.org/tapwater/system.php?pws=WY5600003,"Bairoil, Town Of",82901
Green River,10500,WY,https://www.ewg.org/tapwater/system.php?pws=WY5601181,City of Green River,82901
Rock Springs,19050,WY,https://www.ewg.org/tapwater/system.php?pws=WY5601182,City of Rock Springs,82901
Rock Springs,1000,WY,https://www.ewg.org/tapwater/system.php?pws=WY5600091,Clearview Improvement Service,82901
Green River,238,WY,https://www.ewg.org/tapwater/system.php?pws=WY5601608,Desert Trails Mhc,82901
Rock Springs,46,WY,https://www.ewg.org/tapwater/system.php?pws=WY5600112,Farson Mobile Home Court,82901
Rock Springs,450,WY,https://www.ewg.org/tapwater/system.php?pws=WY5601202,Foothills Village Mobile Home Court,82901
Granger,135,WY,https://www.ewg.org/tapwater/system.php?pws=WY5600020,"Granger, Town Of",82901
Rock Springs,300,WY,https://www.ewg.org/tapwater/system.php?pws=WY5600088,"Horizon Mobile Home Park, Llc",82901
Green River,560,WY,https://www.ewg.org/tapwater/system.php?pws=WY5600810,Jamestown-rio Vista W & Sewer,82901
Rock Springs,326,WY,https://www.ewg.org/tapwater/system.php?pws=WY5601175,Lewis Mobile Home Park,82901
Little America,2000,WY,https://www.ewg.org/tapwater/system.php?pws=WY5600097,"Little America Hotels & Resorts, Inc- Wy",82901
Rock Springs,300,WY,https://www.ewg.org/tapwater/system.php?pws=WY5601203,Mobile Corrals/stalls Court,82901
Green River,1500,WY,https://www.ewg.org/tapwater/system.php?pws=WY5601173,Pioneer Mobile Home Park,82901
Point Of Rocks,150,WY,https://www.ewg.org/tapwater/system.php?pws=WY5600093,Point Of Rocks Mercantile,82901
Green River,25,WY,https://www.ewg.org/tapwater/system.php?pws=WY5600050,Rock Springs/green River Jp,82901
Rock Springs,690,WY,https://www.ewg.org/tapwater/system.php?pws=WY5601176,Skyline Village Mobile Home Pk,82901
Superior,250,WY,https://www.ewg.org/tapwater/system.php?pws=WY5600092,"Superior, Town Of",82901
Rock Springs,375,WY,https://www.ewg.org/tapwater/system.php?pws=WY5601369,Ten Mile Water & Sewer District,82901
Rock Springs,270,WY,https://www.ewg.org/tapwater/system.php?pws=WY5601206,Volcic Mobile Home Park,82901
Rock Springs,175,WY,https://www.ewg.org/tapwater/system.php?pws=WY5601607,W Bar K,82901
Wamsutter,450,WY,https://www.ewg.org/tapwater/system.php?pws=WY5600105,"Wamsutter, Town Of",82901
Rock Springs,448,WY,https://www.ewg.org/tapwater/system.php?pws=WY5601085,Western Hills Mobile Home Park,82901
Rock Springs,3000,WY,https://www.ewg.org/tapwater/system.php?pws=WY5601391,White Mt. Water & Sewer District,82901
Alexandria,54782,LA,https://www.ewg.org/tapwater/system.php?pws=LA1079001,City of Alexandria Water System,71325
Pineville,20315,LA,https://www.ewg.org/tapwater/system.php?pws=LA1079016,City of Pineville Water System,71325
Tioga,19983,LA,https://www.ewg.org/tapwater/system.php?pws=LA1079017,Rapides Parish Waterworks District 3,71325
Deville,10287,LA,https://www.ewg.org/tapwater/system.php?pws=LA1079004,Buckeye Water District 50,71325
Ville Platte,7628,LA,https://www.ewg.org/tapwater/system.php?pws=LA1039010,City of Ville Platte Water System,71325
Fort Branch,3518,IN,https://www.ewg.org/tapwater/system.php?pws=IN5226001,Fort Branch Water Department,47670
Francisco,802,IN,https://www.ewg.org/tapwater/system.php?pws=IN5226002,Francisco Water Department,47670
Haubstadt,4390,IN,https://www.ewg.org/tapwater/system.php?pws=IN5226009,Gibson Water Inc.,47670
Haubstadt,2378,IN,https://www.ewg.org/tapwater/system.php?pws=IN5226003,Haubstadt Water Department,47670
Hazleton,288,IN,https://www.ewg.org/tapwater/system.php?pws=IN5226004,Hazelton Water Department,47670
Oakland City,2800,IN,https://www.ewg.org/tapwater/system.php?pws=IN5226005,Oakland City Water Department,47670
Owensville,2125,IN,https://www.ewg.org/tapwater/system.php?pws=IN5226006,Owensville Water Works,47670
Patoka,750,IN,https://www.ewg.org/tapwater/system.php?pws=IN5226007,Patoka Water & Electric,47670
Princeton,10875,IN,https://www.ewg.org/tapwater/system.php?pws=IN5226008,Princeton Water Department,47670
Myrtle,1415,MS,https://www.ewg.org/tapwater/system.php?pws=MS0470106,Bcm Water Association,38654
Hernando,2136,MS,https://www.ewg.org/tapwater/system.php?pws=MS0170001,Belmont Water Association,38654
Columbus,768,MS,https://www.ewg.org/tapwater/system.php?pws=MS0170020,Buena Vista Lakes,38654
Hernando,12490,MS,https://www.ewg.org/tapwater/system.php?pws=MS0170009,City of Hernando,38654
Hernando,964,MS,https://www.ewg.org/tapwater/system.php?pws=MS0170050,City Of Hernando - Laughter,38654
Hernando,4746,MS,https://www.ewg.org/tapwater/system.php?pws=MS0170002,City Of Hernando-jaybird,38654
Holly Springs,9596,MS,https://www.ewg.org/tapwater/system.php?pws=MS0470002,City of Holly Springs,38654
Horn Lake,13625,MS,https://www.ewg.org/tapwater/system.php?pws=MS0170022,City of Horn Lake,38654
Horn Lake,723,MS,https://www.ewg.org/tapwater/system.php?pws=MS0170024,City of Horn Lake - Holly Hills,38654
Horn Lake,1919,MS,https://www.ewg.org/tapwater/system.php?pws=MS0170025,City Of Horn Lake - Twin Lakes,38654
Olive Branch,54963,MS,https://www.ewg.org/tapwater/system.php?pws=MS0170015,City of Olive Branch,38654
Southaven,54000,MS,https://www.ewg.org/tapwater/system.php?pws=MS0170018,City of Southaven,38654
Nesbit,206,MS,https://www.ewg.org/tapwater/system.php?pws=MS0170027,Country Haven Mobile Home Park,38654
Hernando,2563,MS,https://www.ewg.org/tapwater/system.php?pws=MS0170005,Days Water Association,38654
Hernando,3408,MS,https://www.ewg.org/tapwater/system.php?pws=MS0170006,Eudora Utilities Association,38654
Horn Lake,12542,MS,https://www.ewg.org/tapwater/system.php?pws=MS0170010,Horn Lake Water Association,38654
Hernando,154,MS,https://www.ewg.org/tapwater/system.php?pws=MS0170033,Koko Reef Water Company,38654
Olive Branch,375,MS,https://www.ewg.org/tapwater/system.php?pws=MS0170049,Lewisburg -ingrams Mill North,38654
Olive Branch,5848,MS,https://www.ewg.org/tapwater/system.php?pws=MS0170011,Lewisburg Water Association,38654
Byhalia,3841,MS,https://www.ewg.org/tapwater/system.php?pws=MS0470105,Marshall County Water Association,38654
Nesbit,4768,MS,https://www.ewg.org/tapwater/system.php?pws=MS0170014,Nesbit Water Association,38654
Byhalia,107,MS,https://www.ewg.org/tapwater/system.php?pws=MS0470069,South Victoria,38654
Byhalia,3523,MS,https://www.ewg.org/tapwater/system.php?pws=MS0470001,Town of Byhalia,38654
Potts Camp,962,MS,https://www.ewg.org/tapwater/system.php?pws=MS0470004,Town of Potts Camp,38654
Walls,2540,MS,https://www.ewg.org/tapwater/system.php?pws=MS0170019,Walls Water Association,38654
Walls,8158,MS,https://www.ewg.org/tapwater/system.php?pws=MS0170043,Walls Water Association- Lake Forest,38654
Big Sandy,608,MT,https://www.ewg.org/tapwater/system.php?pws=MT0000150,"Big Sandy, Town of",59520
Carter,150,MT,https://www.ewg.org/tapwater/system.php?pws=MT0000520,Carter Chouteau County Water District,59520
Fort Benton,1500,MT,https://www.ewg.org/tapwater/system.php?pws=MT0000216,"Fort Benton, City of",59520
Geraldine,300,MT,https://www.ewg.org/tapwater/system.php?pws=MT0000225,"Geraldine, Town of",59520
Geraldine,80,MT,https://www.ewg.org/tapwater/system.php?pws=MT0003522,Hawarden Square Butte Water,59520
Highwood,280,MT,https://www.ewg.org/tapwater/system.php?pws=MT0000248,Highwood County Water and Sewer District,59520
Loma,200,MT,https://www.ewg.org/tapwater/system.php?pws=MT0002669,Loma County Water District,59520
Geraldine,50,MT,https://www.ewg.org/tapwater/system.php?pws=MT0003521,North Geraldine Water System,59520
Highwood,80,MT,https://www.ewg.org/tapwater/system.php?pws=MT0001925,South Chouteau County Water District,59520
Carter,78,MT,https://www.ewg.org/tapwater/system.php?pws=MT0003978,Twin Hills Colony Inc.,59520
Enfield,18544,CT,https://www.ewg.org/tapwater/system.php?pws=CT0490021,Hazardville Water Company,06071
Stafford Springs,250,CT,https://www.ewg.org/tapwater/system.php?pws=CT1340032,Johnson Memorial Hospital Inc.,06071
East Longmeadow,16162,CT,https://www.ewg.org/tapwater/system.php?pws=MA1085000,East Longmeadow DPW Water Department,06071
Enfield,352,CT,https://www.ewg.org/tapwater/system.php?pws=CT1299031,Hazardville - Rye Hill System,06071
Tuscola,5859,TX,https://www.ewg.org/tapwater/system.php?pws=TX2210022,Steamboat Mountain Water Supply Corporation,79530
Winters,2898,TX,https://www.ewg.org/tapwater/system.php?pws=TX2000005,North Runnels Water Supply Corporation,79530
Lawn,780,TX,https://www.ewg.org/tapwater/system.php?pws=TX2210005,City of Lawn,79530
Kearney,38,NE,https://www.ewg.org/tapwater/system.php?pws=NE3101901,Cottonmill Mobile Home Court,68855
Kearney,90,NE,https://www.ewg.org/tapwater/system.php?pws=NE3120018,1733 Estates Associates,68855
Kearney,50,NE,https://www.ewg.org/tapwater/system.php?pws=NE3121406,West Side Trailer Court,68855
Kearney,60,NE,https://www.ewg.org/tapwater/system.php?pws=NE3101905,Wood River Valley Mobile Home Park,68855
Amherst,295,NE,https://www.ewg.org/tapwater/system.php?pws=NE3120041,"Amherst, Village of",68855
Anselmo,151,NE,https://www.ewg.org/tapwater/system.php?pws=NE3104103,"Anselmo, Village of",68855
Ansley,450,NE,https://www.ewg.org/tapwater/system.php?pws=NE3104104,"Ansley, Village of",68855
Arnold,597,NE,https://www.ewg.org/tapwater/system.php?pws=NE3104102,"Arnold, Village of",68855
Broken Bow,3500,NE,https://www.ewg.org/tapwater/system.php?pws=NE3104105,"Broken Bow, City of",68855
Kearney,500,NE,https://www.ewg.org/tapwater/system.php?pws=NE3120037,Buffalo County Sanitary and Improvement District 3 - Glenwood Estates,68855
Callaway,539,NE,https://www.ewg.org/tapwater/system.php?pws=NE3104111,"Callaway, Village of",68855
Kearney,30919,NE,https://www.ewg.org/tapwater/system.php?pws=NE3101906,City of Kearney,68855
Kearney,69,NE,https://www.ewg.org/tapwater/system.php?pws=NE3120029,Clearview Utilities Corporation,68855
Comstock,110,NE,https://www.ewg.org/tapwater/system.php?pws=NE3104110,"Comstock, Village of",68855
Elm Creek,901,NE,https://www.ewg.org/tapwater/system.php?pws=NE3101908,"Elm Creek, Village of",68855
Gibbon,1833,NE,https://www.ewg.org/tapwater/system.php?pws=NE3101907,"Gibbon, City of",68855
Mason City,171,NE,https://www.ewg.org/tapwater/system.php?pws=NE3104109,"Mason City, Village of",68855
Merna,363,NE,https://www.ewg.org/tapwater/system.php?pws=NE3104108,"Merna, Village of",68855
Miller,170,NE,https://www.ewg.org/tapwater/system.php?pws=NE3101903,"Miller, Village of",68855
Oconto,150,NE,https://www.ewg.org/tapwater/system.php?pws=NE3104107,"Oconto, Village of",68855
Pleasanton,341,NE,https://www.ewg.org/tapwater/system.php?pws=NE3101909,"Pleasanton, Village of",68855
Ravenna,1360,NE,https://www.ewg.org/tapwater/system.php?pws=NE3101911,"Ravenna, City of",68855
Riverdale,210,NE,https://www.ewg.org/tapwater/system.php?pws=NE3120710,"Riverdale, Village of",68855
Sargent,577,NE,https://www.ewg.org/tapwater/system.php?pws=NE3104101,"Sargent, City of",68855
Shelton,960,NE,https://www.ewg.org/tapwater/system.php?pws=NE3101910,"Shelton, Village of",68855
Springfield,175000,MO,https://www.ewg.org/tapwater/system.php?pws=MO5010754,Springfield,65810
Republic,16100,MO,https://www.ewg.org/tapwater/system.php?pws=MO5010681,Republic,65810
Battlefield,8738,MO,https://www.ewg.org/tapwater/system.php?pws=MO5024228,Greene County Public Water Supply District 1,65810
Willard,7903,MO,https://www.ewg.org/tapwater/system.php?pws=MO5010860,Willard PWS,65810
Strafford,2600,MO,https://www.ewg.org/tapwater/system.php?pws=MO5010768,Strafford PWS,65810
S Burlington,70000,VT,https://www.ewg.org/tapwater/system.php?pws=VT0005092,Champlain Water District,05461
Burlington,42000,VT,https://www.ewg.org/tapwater/system.php?pws=VT0005053,Burlington Department Public Works Water Div,05461
Williston,15296,VT,https://www.ewg.org/tapwater/system.php?pws=VT0005091,South Burlington City Water System,05461
Essex Jct,9734,VT,https://www.ewg.org/tapwater/system.php?pws=VT0005065,Essex Town Water System,05461
Essex Junction,9331,VT,https://www.ewg.org/tapwater/system.php?pws=VT0005066,Essex Jct Water Department,05461
Osage,71,IA,https://www.ewg.org/tapwater/system.php?pws=IA6668001,Orchard Water Works,50455
Osage,3634,IA,https://www.ewg.org/tapwater/system.php?pws=IA6663001,Osage Municipal Water Supply,50455
St. Ansgar,1110,IA,https://www.ewg.org/tapwater/system.php?pws=IA6673016,St. Ansgar Water Supply,50455
Stacyville,494,IA,https://www.ewg.org/tapwater/system.php?pws=IA6677089,Stacyville Water Supply,50455
Roanoke,155000,VA,https://www.ewg.org/tapwater/system.php?pws=VA2770900,Western Virginia Water Authority,24059
Vinton,12800,VA,https://www.ewg.org/tapwater/system.php?pws=VA2161830,Vinton,24059
Rocky Mount,5689,VA,https://www.ewg.org/tapwater/system.php?pws=VA5067840,"Rocky Mount, Town of",24059
Roanoke,3189,VA,https://www.ewg.org/tapwater/system.php?pws=VA5067244,Westlake Area Public Water System,24059
Floyd,2300,VA,https://www.ewg.org/tapwater/system.php?pws=VA1063220,Floyd-floyd County Psa,24059
Corvallis,54998,OR,https://www.ewg.org/tapwater/system.php?pws=OR4100225,City of Corvallis,97333
Albany,52509,OR,https://www.ewg.org/tapwater/system.php?pws=OR4100012,City of Albany,97333
Lebanon,15690,OR,https://www.ewg.org/tapwater/system.php?pws=OR4100473,City of Lebanon,97333
Sweet Home,9065,OR,https://www.ewg.org/tapwater/system.php?pws=OR4100851,"Sweet Home, City of",97333
Philomath,4610,OR,https://www.ewg.org/tapwater/system.php?pws=OR4100624,Philomath Public Works,97333
Harrisburg,3630,OR,https://www.ewg.org/tapwater/system.php?pws=OR4100366,"Harrisburg, City of",97333
Lyons,1875,OR,https://www.ewg.org/tapwater/system.php?pws=OR4100493,Lyons Mehama Water District,97333
Brownsville,1670,OR,https://www.ewg.org/tapwater/system.php?pws=OR4100152,"Brownsville, City of",97333
Mill City,1640,OR,https://www.ewg.org/tapwater/system.php?pws=OR4100520,Mill City Water Department,97333
Lebanon,1505,OR,https://www.ewg.org/tapwater/system.php?pws=OR4101533,City Of Millersburg,97333
Artesia,14000,NM,https://www.ewg.org/tapwater/system.php?pws=NM3520308,Artesia Municipal Water System,88220
Artesia,1825,NM,https://www.ewg.org/tapwater/system.php?pws=NM3530608,Artesia Rural Water Cooperative,88220
Artesia,212,NM,https://www.ewg.org/tapwater/system.php?pws=NM3521008,Caprock Water Company,88220
Carlsbad,27000,NM,https://www.ewg.org/tapwater/system.php?pws=NM3520608,Carlsbad Municipal Water System,88220
Artesia,1472,NM,https://www.ewg.org/tapwater/system.php?pws=NM3555008,Cottonwood Water Mutual Domestic Water Consumers Association,88220
Carlsbad,646,NM,https://www.ewg.org/tapwater/system.php?pws=NM3520708,Happy Valley Cooperative Water Works,88220
Hope,272,NM,https://www.ewg.org/tapwater/system.php?pws=NM3520808,Hope Water System,88220
Loving,1665,NM,https://www.ewg.org/tapwater/system.php?pws=NM3521108,Loving Water System,88220
Malaga,658,NM,https://www.ewg.org/tapwater/system.php?pws=NM3521208,Malaga Mdwc Swa,88220
Artesia,358,NM,https://www.ewg.org/tapwater/system.php?pws=NM3520408,Morningside Water Users Cooperative,88220
Roswell,300,NM,https://www.ewg.org/tapwater/system.php?pws=NM3510508,North Park Mutual Domestic Water Consumers Association,88220
Carlsbad,5800,NM,https://www.ewg.org/tapwater/system.php?pws=NM3521308,Otis Mutual Domestic Water Consumers Association,88220
Artesia,230,NM,https://www.ewg.org/tapwater/system.php?pws=NM3520508,Riverside Mdwa,88220
Albuquerque,232,NM,https://www.ewg.org/tapwater/system.php?pws=NM3565508,Westwinds Mobile Home Park,88220
Carlsbad,40,NM,https://www.ewg.org/tapwater/system.php?pws=NM3521408,Whites City Water System,88220
Oneonta,15779,NY,https://www.ewg.org/tapwater/system.php?pws=NY3800154,Oneonta City,13825
Delhi,3833,NY,https://www.ewg.org/tapwater/system.php?pws=NY1200257,Delhi Village,13825
Sidney,3800,NY,https://www.ewg.org/tapwater/system.php?pws=NY1200270,Sidney Village,13825
Walton,3088,NY,https://www.ewg.org/tapwater/system.php?pws=NY1200274,Walton Village,13825
Cooperstown,2400,NY,https://www.ewg.org/tapwater/system.php?pws=NY3800145,Cooperstown Village,13825
Stamford,1280,NY,https://www.ewg.org/tapwater/system.php?pws=NY1200272,Stamford Village,13825
Richfield Springs,1200,NY,https://www.ewg.org/tapwater/system.php?pws=NY3800156,Richfield Springs Village,13825
Hancock,1182,NY,https://www.ewg.org/tapwater/system.php?pws=NY1200266,Hancock Village,13825
Unadilla,1128,NY,https://www.ewg.org/tapwater/system.php?pws=NY3800158,Unadilla Village,13825
Roxbury,1080,NY,https://www.ewg.org/tapwater/system.php?pws=NY1200269,Roxbury Water District,13825
Eureka,80000,CA,https://www.ewg.org/tapwater/system.php?pws=CA1210013,Humboldt Bay MWD,95503
Cutten,19000,CA,https://www.ewg.org/tapwater/system.php?pws=CA1210009,Humboldt CSD,95503
Eureka,80000,CA,https://www.ewg.org/tapwater/system.php?pws=CA1210013,Humboldt Bay MWD,95503
Eureka,28344,CA,https://www.ewg.org/tapwater/system.php?pws=CA1210004,City of Eureka,95503
Eureka,80000,CA,https://www.ewg.org/tapwater/system.php?pws=CA1210013,Humboldt Bay MWD,95503
Cutten,19000,CA,https://www.ewg.org/tapwater/system.php?pws=CA1210009,Humboldt CSD,95503
Eureka,28344,CA,https://www.ewg.org/tapwater/system.php?pws=CA1210004,City of Eureka,95503
Altoona,14541,IA,https://www.ewg.org/tapwater/system.php?pws=IA7707030,Altoona Water Supply,50023
Ankeny,1032,IA,https://www.ewg.org/tapwater/system.php?pws=IA7709601,Autumn Ridge Estates Mobile Home Park,50023
Bondurant,3860,IA,https://www.ewg.org/tapwater/system.php?pws=IA7717032,Bondurant Muni Water Supply,50023
Johnston,895,IA,https://www.ewg.org/tapwater/system.php?pws=IA7700901,Camp Dodge Water Supply,50023
Ankeny,54598,IA,https://www.ewg.org/tapwater/system.php?pws=IA7709053,City of Ankeny,50023
Clive,15447,IA,https://www.ewg.org/tapwater/system.php?pws=IA7720051,Clive Water Department,50023
Des Moines,233020,IA,https://www.ewg.org/tapwater/system.php?pws=IA7727031,Des Moines Water Works,50023
Ankeny,683,IA,https://www.ewg.org/tapwater/system.php?pws=IA7730012,Elkhart Water Supply,50023
Newton,455,IA,https://www.ewg.org/tapwater/system.php?pws=IA7727604,Ewing Trace Mobile Home Community,50023
Ankeny,1410,IA,https://www.ewg.org/tapwater/system.php?pws=IA7700853,Gould Heights Water Service Company,50023
Ankeny,325,IA,https://www.ewg.org/tapwater/system.php?pws=IA7709395,Greenwood Acres Water Company,50023
Grimes,8246,IA,https://www.ewg.org/tapwater/system.php?pws=IA7736011,Grimes Water Supply,50023
Ankeny,235,IA,https://www.ewg.org/tapwater/system.php?pws=IA7709396,Hickory Hollow Water Service Inc.,50023
Johnston,17306,IA,https://www.ewg.org/tapwater/system.php?pws=IA7740011,Johnston Municipal Water Supply,50023
Mitchellville,2254,IA,https://www.ewg.org/tapwater/system.php?pws=IA7751092,Mitchellville Water Supply,50023
Ankeny,201,IA,https://www.ewg.org/tapwater/system.php?pws=IA7709398,Oakwood Park Water Inc.,50023
Ankeny,787,IA,https://www.ewg.org/tapwater/system.php?pws=IA7736301,Park View Village,50023
Polk City,3418,IA,https://www.ewg.org/tapwater/system.php?pws=IA7770050,Polk City Water Supply,50023
Sheldahl,319,IA,https://www.ewg.org/tapwater/system.php?pws=IA7778039,Sheldahl Water Supply,50023
Des Moines,6050,IA,https://www.ewg.org/tapwater/system.php?pws=IA7774701,Southeast Polk Rural Water District,50023
Newton,648,IA,https://www.ewg.org/tapwater/system.php?pws=IA7727603,Southridge Estate,50023
Ankeny,393,IA,https://www.ewg.org/tapwater/system.php?pws=IA7700802,Southwest Polk Water Service Inc.,50023
Urbandale,39463,IA,https://www.ewg.org/tapwater/system.php?pws=IA7780042,Urbandale Water Utility,50023
Benton,1000,AR,https://www.ewg.org/tapwater/system.php?pws=AR0000485,Arkansas Health Center,72210
Bauxite,574,AR,https://www.ewg.org/tapwater/system.php?pws=AR0000497,Bauxite Water,72210
Benton,30681,AR,https://www.ewg.org/tapwater/system.php?pws=AR0000484,Benton Waterworks,72210
Bryant,1300,AR,https://www.ewg.org/tapwater/system.php?pws=AR0000486,Bryant Waterworks,72210
North Little Rock,1500,AR,https://www.ewg.org/tapwater/system.php?pws=AR0000877,Camp Robinson,72210
Little Rock,313504,AR,https://www.ewg.org/tapwater/system.php?pws=AR0000465,Central Arkansas Water,72210
Little Rock,5800,AR,https://www.ewg.org/tapwater/system.php?pws=AR0000646,East End Water,72210
Haskell,3990,AR,https://www.ewg.org/tapwater/system.php?pws=AR0000488,Haskell Water System,72210
Jacksonville,14157,AR,https://www.ewg.org/tapwater/system.php?pws=AR0000466,Jacksonville Waterworks,72210
Roland,2771,AR,https://www.ewg.org/tapwater/system.php?pws=AR0000464,Maumelle Water Corporation,72210
Cabot,11148,AR,https://www.ewg.org/tapwater/system.php?pws=AR0000725,Mid-Arkansas Utilities PWA,72210
Paron,2071,AR,https://www.ewg.org/tapwater/system.php?pws=AR0000883,Paron-owensville Water Authority,72210
Little Rock,150,AR,https://www.ewg.org/tapwater/system.php?pws=AR0000776,Ridgefield Estates Water System,72210
Benton,7140,AR,https://www.ewg.org/tapwater/system.php?pws=AR0000492,Salem Water Association,72210
Alexander,1949,AR,https://www.ewg.org/tapwater/system.php?pws=AR0000491,Saline County Water Works and Sanitary Sewer Public Facilities Board,72210
Mabelvale,13344,AR,https://www.ewg.org/tapwater/system.php?pws=AR0000493,Sardis Water Association,72210
Shannon Hills,3443,AR,https://www.ewg.org/tapwater/system.php?pws=AR0000800,Shannon Hills Water Department,72210
Benton,7140,AR,https://www.ewg.org/tapwater/system.php?pws=AR0000495,Southwest Water Association,72210
Malvern,1987,AR,https://www.ewg.org/tapwater/system.php?pws=AR0000220,Tull Water,72210
Jacksonville,8618,AR,https://www.ewg.org/tapwater/system.php?pws=AR0000690,U.S. Air Force Base Little Rock,72210
Springdale,60,AR,https://www.ewg.org/tapwater/system.php?pws=MO3302411,Windsor Apartments,72210
Pine Bluff,1000,AR,https://www.ewg.org/tapwater/system.php?pws=AR0000471,Woodson-hensley Water Company,72210
Andale,981,KS,https://www.ewg.org/tapwater/system.php?pws=KS2017342,"Andale, City of",67204
Bel Aire,7284,KS,https://www.ewg.org/tapwater/system.php?pws=KS2017304,"Bel Aire, City of",67204
Bentley,524,KS,https://www.ewg.org/tapwater/system.php?pws=KS2017341,"Bentley, City of",67204
Cheney,2153,KS,https://www.ewg.org/tapwater/system.php?pws=KS2017327,"Cheney, City of",67204
Park City,1,KS,https://www.ewg.org/tapwater/system.php?pws=KS2017347,Chisholm Creek Utility Authority,67204
Haysville,11112,KS,https://www.ewg.org/tapwater/system.php?pws=KS2017322,City of Haysville,67204
Wichita,388413,KS,https://www.ewg.org/tapwater/system.php?pws=KS2017308,City of Wichita,67204
Clearwater,2531,KS,https://www.ewg.org/tapwater/system.php?pws=KS2017329,"Clearwater, City of",67204
Colwich,1362,KS,https://www.ewg.org/tapwater/system.php?pws=KS2017344,"Colwich, City of",67204
Derby,23234,KS,https://www.ewg.org/tapwater/system.php?pws=KS2017328,El Paso Water Company,67204
Garden Plain,879,KS,https://www.ewg.org/tapwater/system.php?pws=KS2017339,"Garden Plain, City of",67204
Goddard,4692,KS,https://www.ewg.org/tapwater/system.php?pws=KS2017325,"Goddard, City of",67204
Kechi,1982,KS,https://www.ewg.org/tapwater/system.php?pws=KS2017334,"Kechi, City of",67204
Maize,4073,KS,https://www.ewg.org/tapwater/system.php?pws=KS2017345,"Maize, City of",67204
Mcconnell Air Force Base,2172,KS,https://www.ewg.org/tapwater/system.php?pws=KS2017323,Mcconnell Air Force Base,67204
Mount Hope,814,KS,https://www.ewg.org/tapwater/system.php?pws=KS2017319,"Mount Hope, City of",67204
Park City,7556,KS,https://www.ewg.org/tapwater/system.php?pws=KS2017303,"Park City, City of",67204
Kechi,1275,KS,https://www.ewg.org/tapwater/system.php?pws=KS2017316,Sedgwick County Rural Water District 1,67204
Valley Center,1100,KS,https://www.ewg.org/tapwater/system.php?pws=KS2017315,Sedgwick County Rural Water District 2,67204
Mulvane,5290,KS,https://www.ewg.org/tapwater/system.php?pws=KS2017306,Sedgwick County Rural Water District 3,67204
Goddard,1626,KS,https://www.ewg.org/tapwater/system.php?pws=KS2017338,Sedgwick County Rural Water District 4,67204
Wichita,35,KS,https://www.ewg.org/tapwater/system.php?pws=KS2017312,The Harbor,67204
Valley Center,5654,KS,https://www.ewg.org/tapwater/system.php?pws=KS2017318,"Valley Center, City of",67204
Viola,131,KS,https://www.ewg.org/tapwater/system.php?pws=KS2017313,"Viola, City of",67204
Kalispell,20008,MT,https://www.ewg.org/tapwater/system.php?pws=MT0000259,Kalispell Public Works,59901
Whitefish,9671,MT,https://www.ewg.org/tapwater/system.php?pws=MT0000357,"Whitefish, City of",59901
Kalispell,5700,MT,https://www.ewg.org/tapwater/system.php?pws=MT0001744,Flathead County Water and Sewer,59901
Columbia Falls,4450,MT,https://www.ewg.org/tapwater/system.php?pws=MT0000181,"Columbia Falls, City of",59901
Bigfork,2900,MT,https://www.ewg.org/tapwater/system.php?pws=MT0000262,Bigfork County Water and Sewer,59901
Whitefish,2435,MT,https://www.ewg.org/tapwater/system.php?pws=MT0000060,Big Mountain Water Company,59901
Lakeside,850,MT,https://www.ewg.org/tapwater/system.php?pws=MT0000266,Lakeside Water System,59901
Hungry Horse,800,MT,https://www.ewg.org/tapwater/system.php?pws=MT0000253,Hungry Horse County Water and Sewer District,59901
Somers,765,MT,https://www.ewg.org/tapwater/system.php?pws=MT0000332,Somers County Water and Sewer District,59901
Whitefish,600,MT,https://www.ewg.org/tapwater/system.php?pws=MT0000133,Ptarmigan Village Inc.,59901
Atlanta,1649,IL,https://www.ewg.org/tapwater/system.php?pws=IL1070050,Atlanta,62518
Chestnut,600,IL,https://www.ewg.org/tapwater/system.php?pws=IL1075150,Beason Chestnut Public Water District,62518
Broadwell,169,IL,https://www.ewg.org/tapwater/system.php?pws=IL1070100,Broadwell,62518
Elkhart,500,IL,https://www.ewg.org/tapwater/system.php?pws=IL1070150,Elkhart,62518
Emden,475,IL,https://www.ewg.org/tapwater/system.php?pws=IL1070200,Emden,62518
Hartsburg,400,IL,https://www.ewg.org/tapwater/system.php?pws=IL1070250,Hartsburg,62518
Latham,380,IL,https://www.ewg.org/tapwater/system.php?pws=IL1070300,Latham,62518
Middletown,434,IL,https://www.ewg.org/tapwater/system.php?pws=IL1070500,Middletown,62518
Dekalb,75,IL,https://www.ewg.org/tapwater/system.php?pws=IL1075145,Morningside Mobile Estates Mobile Home Park,62518
Mt. Pulaski,1800,IL,https://www.ewg.org/tapwater/system.php?pws=IL1070400,Mount Pulaski,62518
New Holland,333,IL,https://www.ewg.org/tapwater/system.php?pws=IL1070450,New Holland,62518
Jenks,16924,OK,https://www.ewg.org/tapwater/system.php?pws=OK3007201,Jenks PWA,74137
Denver,19000,CO,https://www.ewg.org/tapwater/system.php?pws=CO0116175,Cherry Creek Valley WSD,80223
Denver,1000000,CO,https://www.ewg.org/tapwater/system.php?pws=CO0116001,Denver Water Board,80223
Glendale,4490,CO,https://www.ewg.org/tapwater/system.php?pws=CO0103055,"Glendale, City of",80223
